{"type":"FeatureCollection", "features": [
{"type":"Feature","geometry":{"type":"Polygon","coordinates":[[[2.41597,48.84662],[2.41634,48.84923],[2.41437,48.86065],[2.41395,48.86471],[2.41396,48.86922],[2.41365,48.87244],[2.41245,48.87644],[2.41082,48.87844],[2.40685,48.87718],[2.40255,48.876],[2.39897,48.87549],[2.39525,48.87525],[2.39226,48.87546],[2.39046,48.87544],[2.38965,48.8753],[2.3885,48.87476],[2.38681,48.8746],[2.38496,48.87376],[2.37983,48.87286],[2.3769,48.87205],[2.37829,48.87077],[2.38297,48.86718],[2.38358,48.86627],[2.38733,48.86296],[2.38954,48.85849],[2.39226,48.85763],[2.39435,48.85652],[2.39844,48.85122],[2.39925,48.84887],[2.39912,48.8481],[2.41597,48.84662]]]},"properties":{"code_territoire":"com75120","libelle_territoire":"Paris 20e Arrondissement"}},
{"type":"Feature","geometry":{"type":"Polygon","coordinates":[[[2.36912,48.85317],[2.37023,48.85328],[2.37201,48.85238],[2.3789,48.85062],[2.38446,48.85013],[2.39596,48.84838],[2.39912,48.8481],[2.39925,48.84887],[2.39844,48.85122],[2.39435,48.85652],[2.39226,48.85763],[2.38954,48.85849],[2.38733,48.86296],[2.38358,48.86627],[2.38297,48.86718],[2.37829,48.87077],[2.3769,48.87205],[2.37335,48.87072],[2.36562,48.86824],[2.36387,48.86752],[2.36431,48.86731],[2.36675,48.86308],[2.36849,48.85581],[2.36912,48.85317]]]},"properties":{"code_territoire":"com75111","libelle_territoire":"Paris 11e Arrondissement"}},
{"type":"Feature","geometry":{"type":"Polygon","coordinates":[[[2.32589,48.86958],[2.32517,48.86942],[2.32532,48.86901],[2.32093,48.86302],[2.32798,48.86082],[2.33121,48.85968],[2.33292,48.85934],[2.33767,48.85831],[2.34057,48.85668],[2.34293,48.85483],[2.34463,48.85409],[2.34588,48.85531],[2.34711,48.85724],[2.34733,48.85718],[2.34757,48.85736],[2.35016,48.86199],[2.35096,48.8634],[2.33043,48.86826],[2.328,48.86992],[2.32589,48.86958]]]},"properties":{"code_territoire":"com75101","libelle_territoire":"Paris 1er Arrondissement"}},
{"type":"Feature","geometry":{"type":"Polygon","coordinates":[[[2.36609,48.84497],[2.36513,48.84441],[2.36175,48.83994],[2.35187,48.8368],[2.34701,48.83732],[2.34209,48.83834],[2.34107,48.83197],[2.34125,48.83159],[2.34136,48.82942],[2.3416,48.82835],[2.34159,48.82649],[2.3418,48.82645],[2.34146,48.82376],[2.3418,48.82253],[2.34249,48.82147],[2.34373,48.8205],[2.34459,48.81956],[2.34413,48.81777],[2.3439,48.81577],[2.34445,48.81556],[2.34436,48.81602],[2.34704,48.81605],[2.35239,48.81855],[2.35585,48.81592],[2.36333,48.81615],[2.38077,48.8217],[2.38152,48.82241],[2.38945,48.82534],[2.39007,48.82569],[2.38851,48.82674],[2.3843,48.83031],[2.37836,48.83502],[2.37532,48.83761],[2.37355,48.83933],[2.36609,48.84497]]]},"properties":{"code_territoire":"com75113","libelle_territoire":"Paris 13e Arrondissement"}},
{"type":"Feature","geometry":{"type":"Polygon","coordinates":[[[2.26279,48.83392],[2.26779,48.83459],[2.26993,48.83301],[2.26734,48.83153],[2.26763,48.82797],[2.26783,48.82784],[2.27279,48.82792],[2.2753,48.82944],[2.27905,48.83249],[2.28359,48.8308],[2.29219,48.82714],[2.30132,48.82513],[2.30693,48.82982],[2.30714,48.83018],[2.31483,48.8363],[2.31988,48.84054],[2.32139,48.83978],[2.32184,48.8401],[2.32153,48.84108],[2.32464,48.84362],[2.31989,48.84517],[2.31671,48.84686],[2.31372,48.84594],[2.31049,48.84798],[2.30735,48.84713],[2.29105,48.85748],[2.2897,48.85818],[2.28851,48.85702],[2.28821,48.85613],[2.28784,48.85576],[2.27802,48.84889],[2.27606,48.84725],[2.26603,48.83684],[2.26279,48.83392]]]},"properties":{"code_territoire":"com75115","libelle_territoire":"Paris 15e Arrondissement"}},
{"type":"Feature","geometry":{"type":"Polygon","coordinates":[[[2.33292,48.85934],[2.33245,48.85853],[2.33327,48.85829],[2.33077,48.85511],[2.3294,48.85273],[2.32866,48.85206],[2.32866,48.85187],[2.32681,48.85158],[2.32688,48.85136],[2.32416,48.85024],[2.31954,48.84791],[2.31671,48.84686],[2.31989,48.84517],[2.32464,48.84362],[2.33666,48.83967],[2.33677,48.84075],[2.33726,48.84088],[2.34263,48.85035],[2.34428,48.85376],[2.34463,48.85409],[2.34293,48.85483],[2.34057,48.85668],[2.33767,48.85831],[2.33292,48.85934]]]},"properties":{"code_territoire":"com75106","libelle_territoire":"Paris 6e Arrondissement"}},
{"type":"Feature","geometry":{"type":"Polygon","coordinates":[[[2.30174,48.8635],[2.29859,48.86314],[2.29486,48.86188],[2.2922,48.86025],[2.2897,48.85818],[2.29105,48.85748],[2.30735,48.84713],[2.31049,48.84798],[2.31372,48.84594],[2.31671,48.84686],[2.31954,48.84791],[2.32416,48.85024],[2.32688,48.85136],[2.32681,48.85158],[2.32866,48.85187],[2.32866,48.85206],[2.3294,48.85273],[2.33077,48.85511],[2.33327,48.85829],[2.33245,48.85853],[2.33292,48.85934],[2.33121,48.85968],[2.32798,48.86082],[2.32093,48.86302],[2.31868,48.86372],[2.30174,48.8635]]]},"properties":{"code_territoire":"com75107","libelle_territoire":"Paris 7e Arrondissement"}},
{"type":"Feature","geometry":{"type":"Polygon","coordinates":[[[2.33015,48.90104],[2.32043,48.90078],[2.31852,48.89964],[2.31245,48.89778],[2.30769,48.89601],[2.29863,48.89172],[2.29501,48.88987],[2.29163,48.88946],[2.29115,48.8893],[2.28564,48.88655],[2.28446,48.88564],[2.28454,48.88557],[2.28101,48.88297],[2.27995,48.87857],[2.29503,48.87377],[2.29815,48.87808],[2.30887,48.88043],[2.31648,48.88134],[2.32716,48.88346],[2.32742,48.88351],[2.3256,48.88751],[2.33015,48.90104]]]},"properties":{"code_territoire":"com75117","libelle_territoire":"Paris 17e Arrondissement"}},
{"type":"Feature","geometry":{"type":"Polygon","coordinates":[[[2.35016,48.86199],[2.3535,48.86121],[2.35674,48.86015],[2.35934,48.85834],[2.36177,48.85724],[2.36494,48.85631],[2.36849,48.85581],[2.36675,48.86308],[2.36431,48.86731],[2.36387,48.86752],[2.36329,48.86782],[2.3565,48.86883],[2.35425,48.86932],[2.35096,48.8634],[2.35016,48.86199]]]},"properties":{"code_territoire":"com75103","libelle_territoire":"Paris 3e Arrondissement"}},
{"type":"Feature","geometry":{"type":"Polygon","coordinates":[[[2.39007,48.82569],[2.39434,48.82754],[2.39571,48.82773],[2.39921,48.82863],[2.40224,48.82959],[2.40381,48.82906],[2.40515,48.8283],[2.40829,48.82599],[2.40938,48.82541],[2.41064,48.825],[2.41262,48.82474],[2.41651,48.82474],[2.41996,48.82408],[2.42465,48.82419],[2.42623,48.82413],[2.42796,48.8239],[2.42969,48.82349],[2.43063,48.82316],[2.43037,48.82288],[2.43219,48.82162],[2.43263,48.8219],[2.43289,48.82169],[2.43248,48.82143],[2.43429,48.82016],[2.43414,48.81922],[2.4349,48.81967],[2.43603,48.81959],[2.43692,48.81936],[2.43744,48.81911],[2.43733,48.81818],[2.43985,48.81829],[2.44233,48.8179],[2.44942,48.81791],[2.45081,48.81773],[2.45345,48.81715],[2.45872,48.81703],[2.45941,48.81685],[2.45912,48.81737],[2.4627,48.81906],[2.46253,48.81925],[2.4627,48.81937],[2.46287,48.82018],[2.46504,48.82408],[2.4653,48.82471],[2.46519,48.82496],[2.46532,48.82498],[2.46618,48.82733],[2.46523,48.82767],[2.46509,48.82754],[2.46466,48.82762],[2.46465,48.82896],[2.46514,48.83073],[2.46563,48.83163],[2.46627,48.8323],[2.46849,48.83351],[2.46901,48.83392],[2.4695,48.83447],[2.46983,48.8358],[2.46984,48.83648],[2.46947,48.83705],[2.46779,48.83858],[2.46616,48.84042],[2.4649,48.84141],[2.46245,48.84253],[2.45861,48.84343],[2.44953,48.84468],[2.4465,48.84497],[2.44665,48.8458],[2.44076,48.84596],[2.44068,48.84525],[2.44086,48.84525],[2.44052,48.84444],[2.43796,48.84466],[2.43718,48.84089],[2.43367,48.8412],[2.43354,48.84105],[2.42465,48.84186],[2.42388,48.84226],[2.42265,48.84384],[2.42185,48.84444],[2.41986,48.84346],[2.41985,48.8431],[2.41939,48.84258],[2.41936,48.84232],[2.41954,48.84145],[2.42039,48.84044],[2.42093,48.83933],[2.42159,48.83676],[2.42214,48.8358],[2.41823,48.83447],[2.4162,48.83391],[2.4144,48.83372],[2.4123,48.83381],[2.41147,48.83393],[2.41225,48.83454],[2.41285,48.83622],[2.41566,48.845],[2.41597,48.84662],[2.39912,48.8481],[2.39596,48.84838],[2.38446,48.85013],[2.3789,48.85062],[2.37201,48.85238],[2.37023,48.85328],[2.36912,48.85317],[2.36644,48.84731],[2.36446,48.84619],[2.36609,48.84497],[2.37355,48.83933],[2.37532,48.83761],[2.37836,48.83502],[2.3843,48.83031],[2.38851,48.82674],[2.39007,48.82569]]]},"properties":{"code_territoire":"com75112","libelle_territoire":"Paris 12e Arrondissement"}},
{"type":"Feature","geometry":{"type":"Polygon","coordinates":[[[2.32716,48.88346],[2.32688,48.87618],[2.32664,48.87535],[2.32703,48.87378],[2.32647,48.87276],[2.32661,48.8726],[2.32589,48.86958],[2.328,48.86992],[2.34004,48.87197],[2.34792,48.87069],[2.3479,48.87402],[2.34816,48.87548],[2.34913,48.87753],[2.3493,48.8791],[2.34985,48.88064],[2.34946,48.88372],[2.34691,48.88341],[2.3398,48.88202],[2.3374,48.88239],[2.32954,48.88459],[2.32812,48.88371],[2.32742,48.88351],[2.32716,48.88346]]]},"properties":{"code_territoire":"com75109","libelle_territoire":"Paris 9e Arrondissement"}},
{"type":"Feature","geometry":{"type":"Polygon","coordinates":[[[2.33666,48.83967],[2.32464,48.84362],[2.32153,48.84108],[2.32184,48.8401],[2.32139,48.83978],[2.31988,48.84054],[2.31483,48.8363],[2.30714,48.83018],[2.30693,48.82982],[2.30132,48.82513],[2.33246,48.81825],[2.3319,48.81701],[2.33371,48.81677],[2.34168,48.81633],[2.34301,48.81608],[2.3439,48.81577],[2.34413,48.81777],[2.34459,48.81956],[2.34373,48.8205],[2.34249,48.82147],[2.3418,48.82253],[2.34146,48.82376],[2.3418,48.82645],[2.34159,48.82649],[2.3416,48.82835],[2.34136,48.82942],[2.34125,48.83159],[2.34107,48.83197],[2.34209,48.83834],[2.33666,48.83967]]]},"properties":{"code_territoire":"com75114","libelle_territoire":"Paris 14e Arrondissement"}},
{"type":"Feature","geometry":{"type":"Polygon","coordinates":[[[2.27995,48.87857],[2.27749,48.87797],[2.25847,48.88039],[2.25541,48.87426],[2.25482,48.87408],[2.24653,48.87614],[2.2457,48.87646],[2.24301,48.87378],[2.24095,48.87234],[2.23923,48.87157],[2.23558,48.87052],[2.23287,48.86958],[2.23174,48.86907],[2.23066,48.86808],[2.22825,48.86516],[2.22718,48.86238],[2.22567,48.8594],[2.22452,48.85654],[2.22431,48.8557],[2.22422,48.85352],[2.22659,48.85281],[2.23918,48.85004],[2.24018,48.84957],[2.24236,48.84766],[2.25052,48.84556],[2.25248,48.84549],[2.25122,48.84289],[2.25171,48.83882],[2.25514,48.83481],[2.26279,48.83392],[2.26603,48.83684],[2.27606,48.84725],[2.27802,48.84889],[2.28784,48.85576],[2.28821,48.85613],[2.28851,48.85702],[2.2897,48.85818],[2.2922,48.86025],[2.29486,48.86188],[2.29859,48.86314],[2.30174,48.8635],[2.30164,48.86449],[2.3003,48.86501],[2.29984,48.86499],[2.29984,48.86554],[2.29887,48.86864],[2.2975,48.87094],[2.29503,48.87377],[2.27995,48.87857]]]},"properties":{"code_territoire":"com75116","libelle_territoire":"Paris 16e Arrondissement"}},
{"type":"Feature","geometry":{"type":"Polygon","coordinates":[[[2.34209,48.83834],[2.34701,48.83732],[2.35187,48.8368],[2.36175,48.83994],[2.36513,48.84441],[2.36609,48.84497],[2.36446,48.84619],[2.36226,48.84781],[2.35931,48.84943],[2.3546,48.85099],[2.35125,48.85169],[2.34902,48.85236],[2.34667,48.8534],[2.34463,48.85409],[2.34428,48.85376],[2.34263,48.85035],[2.33726,48.84088],[2.33677,48.84075],[2.33666,48.83967],[2.34209,48.83834]]]},"properties":{"code_territoire":"com75105","libelle_territoire":"Paris 5e Arrondissement"}},
{"type":"Feature","geometry":{"type":"Polygon","coordinates":[[[2.30174,48.8635],[2.31868,48.86372],[2.32093,48.86302],[2.32532,48.86901],[2.32517,48.86942],[2.32589,48.86958],[2.32661,48.8726],[2.32647,48.87276],[2.32703,48.87378],[2.32664,48.87535],[2.32688,48.87618],[2.32716,48.88346],[2.31648,48.88134],[2.30887,48.88043],[2.29815,48.87808],[2.29503,48.87377],[2.2975,48.87094],[2.29887,48.86864],[2.29984,48.86554],[2.29984,48.86499],[2.3003,48.86501],[2.30164,48.86449],[2.30174,48.8635]]]},"properties":{"code_territoire":"com75108","libelle_territoire":"Paris 8e Arrondissement"}},
{"type":"Feature","geometry":{"type":"Polygon","coordinates":[[[2.36912,48.85317],[2.36849,48.85581],[2.36494,48.85631],[2.36177,48.85724],[2.35934,48.85834],[2.35674,48.86015],[2.3535,48.86121],[2.35016,48.86199],[2.34757,48.85736],[2.34733,48.85718],[2.34711,48.85724],[2.34588,48.85531],[2.34463,48.85409],[2.34667,48.8534],[2.34902,48.85236],[2.35125,48.85169],[2.3546,48.85099],[2.35931,48.84943],[2.36226,48.84781],[2.36446,48.84619],[2.36644,48.84731],[2.36912,48.85317]]]},"properties":{"code_territoire":"com75104","libelle_territoire":"Paris 4e Arrondissement"}},
{"type":"Feature","geometry":{"type":"Polygon","coordinates":[[[2.3703,48.90185],[2.33015,48.90104],[2.3256,48.88751],[2.32742,48.88351],[2.32812,48.88371],[2.32954,48.88459],[2.3374,48.88239],[2.3398,48.88202],[2.34691,48.88341],[2.34946,48.88372],[2.35894,48.88441],[2.36471,48.88437],[2.36676,48.88664],[2.37004,48.89401],[2.37064,48.8947],[2.37179,48.89539],[2.37042,48.89666],[2.37033,48.90094],[2.37017,48.90156],[2.3703,48.90185]]]},"properties":{"code_territoire":"com75118","libelle_territoire":"Paris 18e Arrondissement"}},
{"type":"Feature","geometry":{"type":"Polygon","coordinates":[[[2.41082,48.87844],[2.40936,48.88026],[2.40458,48.88127],[2.40151,48.88263],[2.40011,48.88382],[2.39925,48.88536],[2.39912,48.88863],[2.39767,48.89461],[2.39552,48.89826],[2.39084,48.90091],[2.38453,48.90215],[2.3703,48.90185],[2.37017,48.90156],[2.37033,48.90094],[2.37042,48.89666],[2.37179,48.89539],[2.37064,48.8947],[2.37004,48.89401],[2.36676,48.88664],[2.36471,48.88437],[2.3685,48.88407],[2.37003,48.88284],[2.37023,48.88247],[2.37029,48.87799],[2.3769,48.87205],[2.37983,48.87286],[2.38496,48.87376],[2.38681,48.8746],[2.3885,48.87476],[2.38965,48.8753],[2.39046,48.87544],[2.39226,48.87546],[2.39525,48.87525],[2.39897,48.87549],[2.40255,48.876],[2.40685,48.87718],[2.41082,48.87844]]]},"properties":{"code_territoire":"com75119","libelle_territoire":"Paris 19e Arrondissement"}},
{"type":"Feature","geometry":{"type":"Polygon","coordinates":[[[2.34792,48.87069],[2.34004,48.87197],[2.328,48.86992],[2.33043,48.86826],[2.35096,48.8634],[2.35425,48.86932],[2.34792,48.87069]]]},"properties":{"code_territoire":"com75102","libelle_territoire":"Paris 2e Arrondissement"}},
{"type":"Feature","geometry":{"type":"Polygon","coordinates":[[[2.36387,48.86752],[2.36562,48.86824],[2.37335,48.87072],[2.3769,48.87205],[2.37029,48.87799],[2.37023,48.88247],[2.37003,48.88284],[2.3685,48.88407],[2.36471,48.88437],[2.35894,48.88441],[2.34946,48.88372],[2.34985,48.88064],[2.3493,48.8791],[2.34913,48.87753],[2.34816,48.87548],[2.3479,48.87402],[2.34792,48.87069],[2.35425,48.86932],[2.3565,48.86883],[2.36329,48.86782],[2.36387,48.86752]]]},"properties":{"code_territoire":"com75110","libelle_territoire":"Paris 10e Arrondissement"}}
]}