{"type":"FeatureCollection", "features": [
{"type":"Feature","geometry":null,"properties":{"code_territoire":"iris693840402","libelle_territoire":"Flammarion Bony"}},
{"type":"Feature","geometry":null,"properties":{"code_territoire":"iris692660102","libelle_territoire":"Charles Hernu"}},
{"type":"Feature","geometry":null,"properties":{"code_territoire":"iris692560404","libelle_territoire":"Mas du Taureau Sud"}},
{"type":"Feature","geometry":null,"properties":{"code_territoire":"iris692560402","libelle_territoire":"Sauveteur Nord"}},
{"type":"Feature","geometry":null,"properties":{"code_territoire":"iris693840203","libelle_territoire":"Place Croix Rousse-Austerlitz"}},
{"type":"Feature","geometry":null,"properties":{"code_territoire":"iris693860202","libelle_territoire":"Mongolfier-Le Lycée"}},
{"type":"Feature","geometry":null,"properties":{"code_territoire":"iris693820101","libelle_territoire":"La Bourse-Grenette"}},
{"type":"Feature","geometry":null,"properties":{"code_territoire":"iris692900405","libelle_territoire":"Ménival-Clairon"}},
{"type":"Feature","geometry":null,"properties":{"code_territoire":"iris692660702","libelle_territoire":"Buers Nord"}},
{"type":"Feature","geometry":null,"properties":{"code_territoire":"iris692900402","libelle_territoire":"Bel-Air 2"}},
{"type":"Feature","geometry":null,"properties":{"code_territoire":"iris692020402","libelle_territoire":"La Gravière Beaunant"}},
{"type":"Feature","geometry":null,"properties":{"code_territoire":"iris693830201","libelle_territoire":"Moncey"}},
{"type":"Feature","geometry":null,"properties":{"code_territoire":"iris690290202","libelle_territoire":"Les Sapins-Pessivas"}},
{"type":"Feature","geometry":null,"properties":{"code_territoire":"iris692900404","libelle_territoire":"La Cordière"}},
{"type":"Feature","geometry":null,"properties":{"code_territoire":"iris690100101","libelle_territoire":"Sud"}},
{"type":"Feature","geometry":null,"properties":{"code_territoire":"iris692010000","libelle_territoire":"Sainte-Foy-l'Argentière (commune non irisée)"}},
{"type":"Feature","geometry":null,"properties":{"code_territoire":"iris690200000","libelle_territoire":"Belmont-d'Azergues (commune non irisée)"}},
{"type":"Feature","geometry":null,"properties":{"code_territoire":"iris690810202","libelle_territoire":"Centre"}},
{"type":"Feature","geometry":null,"properties":{"code_territoire":"iris693850503","libelle_territoire":"Pierre Valdo"}},
{"type":"Feature","geometry":null,"properties":{"code_territoire":"iris693850401","libelle_territoire":"Debrousse"}},
{"type":"Feature","geometry":null,"properties":{"code_territoire":"iris693830804","libelle_territoire":"Chaussagne Desgenettes"}},
{"type":"Feature","geometry":null,"properties":{"code_territoire":"iris692660701","libelle_territoire":"Buers Est"}},
{"type":"Feature","geometry":null,"properties":{"code_territoire":"iris693820204","libelle_territoire":"Bellecour-Sala"}},
{"type":"Feature","geometry":null,"properties":{"code_territoire":"iris692660401","libelle_territoire":"Stalingrad"}},
{"type":"Feature","geometry":null,"properties":{"code_territoire":"iris693840403","libelle_territoire":"Bony Bonnet"}},
{"type":"Feature","geometry":null,"properties":{"code_territoire":"iris692820102","libelle_territoire":"Grand Large"}},
{"type":"Feature","geometry":null,"properties":{"code_territoire":"iris693810201","libelle_territoire":"Griffon-Royale"}},
{"type":"Feature","geometry":null,"properties":{"code_territoire":"iris690910203","libelle_territoire":"Centre Ville"}},
{"type":"Feature","geometry":null,"properties":{"code_territoire":"iris693850601","libelle_territoire":"Joliot Curie-Les Aqueducs"}},
{"type":"Feature","geometry":null,"properties":{"code_territoire":"iris693880202","libelle_territoire":"Les Alouettes-Bachut"}},
{"type":"Feature","geometry":null,"properties":{"code_territoire":"iris693830902","libelle_territoire":"Chambovet-Pinel"}},
{"type":"Feature","geometry":null,"properties":{"code_territoire":"iris693890605","libelle_territoire":"Balmont le Fort"}},
{"type":"Feature","geometry":null,"properties":{"code_territoire":"iris692661201","libelle_territoire":"République"}},
{"type":"Feature","geometry":null,"properties":{"code_territoire":"iris692560202","libelle_territoire":"Village Sud"}},
{"type":"Feature","geometry":null,"properties":{"code_territoire":"iris693850102","libelle_territoire":"Saint-Jean"}},
{"type":"Feature","geometry":null,"properties":{"code_territoire":"iris693880603","libelle_territoire":"Viviani"}},
{"type":"Feature","geometry":null,"properties":{"code_territoire":"iris691430101","libelle_territoire":"Centre Bourg"}},
{"type":"Feature","geometry":null,"properties":{"code_territoire":"iris693830302","libelle_territoire":"Danton-Bir Hakeim"}},
{"type":"Feature","geometry":null,"properties":{"code_territoire":"iris692661001","libelle_territoire":"Zola-Pressensé Ouest"}},
{"type":"Feature","geometry":null,"properties":{"code_territoire":"iris693870401","libelle_territoire":"Domer"}},
{"type":"Feature","geometry":null,"properties":{"code_territoire":"iris693840204","libelle_territoire":"Cuire Canuts"}},
{"type":"Feature","geometry":null,"properties":{"code_territoire":"iris692590702","libelle_territoire":"Joliot-Curie"}},
{"type":"Feature","geometry":null,"properties":{"code_territoire":"iris693870203","libelle_territoire":"Mairie"}},
{"type":"Feature","geometry":null,"properties":{"code_territoire":"iris690960101","libelle_territoire":"Centre Ville"}},
{"type":"Feature","geometry":null,"properties":{"code_territoire":"iris693860201","libelle_territoire":"Puvis de Chavannes"}},
{"type":"Feature","geometry":null,"properties":{"code_territoire":"iris693830901","libelle_territoire":"Richard Vitton-Docteur Long"}},
{"type":"Feature","geometry":null,"properties":{"code_territoire":"iris692760103","libelle_territoire":"Le Bandonnier-Les Maures"}},
{"type":"Feature","geometry":null,"properties":{"code_territoire":"iris690340201","libelle_territoire":"Centre-Bourg"}},
{"type":"Feature","geometry":null,"properties":{"code_territoire":"iris692661404","libelle_territoire":"Pierre Cacard"}},
{"type":"Feature","geometry":null,"properties":{"code_territoire":"iris691420103","libelle_territoire":"Les Chassagnes"}},
{"type":"Feature","geometry":null,"properties":{"code_territoire":"iris693860102","libelle_territoire":"Le Parc"}},
{"type":"Feature","geometry":null,"properties":{"code_territoire":"iris690340801","libelle_territoire":"Saint-Clair"}},
{"type":"Feature","geometry":null,"properties":{"code_territoire":"iris693850403","libelle_territoire":"Les Castors-Les Granges"}},
{"type":"Feature","geometry":null,"properties":{"code_territoire":"iris693850301","libelle_territoire":"Champvert Sud"}},
{"type":"Feature","geometry":null,"properties":{"code_territoire":"iris693830205","libelle_territoire":"Mairie-Saint-Sacrement"}},
{"type":"Feature","geometry":null,"properties":{"code_territoire":"iris691990303","libelle_territoire":"Grande Terre"}},
{"type":"Feature","geometry":null,"properties":{"code_territoire":"iris690340403","libelle_territoire":"Bissardon"}},
{"type":"Feature","geometry":null,"properties":{"code_territoire":"iris693820201","libelle_territoire":"Hôtel-Dieu"}},
{"type":"Feature","geometry":null,"properties":{"code_territoire":"iris692640102","libelle_territoire":"Zone d'Activités Est 2"}},
{"type":"Feature","geometry":null,"properties":{"code_territoire":"iris690850000","libelle_territoire":"Fleurieu-sur-Saône (commune non irisée)"}},
{"type":"Feature","geometry":null,"properties":{"code_territoire":"iris693880303","libelle_territoire":"Bataille"}},
{"type":"Feature","geometry":null,"properties":{"code_territoire":"iris693860104","libelle_territoire":"L'Helvétie"}},
{"type":"Feature","geometry":null,"properties":{"code_territoire":"iris692610000","libelle_territoire":"Vernay (commune non irisée)"}},
{"type":"Feature","geometry":null,"properties":{"code_territoire":"iris691980000","libelle_territoire":"Saint-Étienne-la-Varenne (commune non irisée)"}},
{"type":"Feature","geometry":null,"properties":{"code_territoire":"iris693880802","libelle_territoire":"Audibert-La Virotte"}},
{"type":"Feature","geometry":null,"properties":{"code_territoire":"iris690910102","libelle_territoire":"Bas Vernes"}},
{"type":"Feature","geometry":null,"properties":{"code_territoire":"iris692020102","libelle_territoire":"Les Dames-Grand Vallon"}},
{"type":"Feature","geometry":null,"properties":{"code_territoire":"iris691490101","libelle_territoire":"Golf-Montlouis"}},
{"type":"Feature","geometry":null,"properties":{"code_territoire":"iris693870201","libelle_territoire":"Saint-Michel"}},
{"type":"Feature","geometry":null,"properties":{"code_territoire":"iris692430101","libelle_territoire":"Centre"}},
{"type":"Feature","geometry":null,"properties":{"code_territoire":"iris693830405","libelle_territoire":"Saint-Anne de Baraban"}},
{"type":"Feature","geometry":null,"properties":{"code_territoire":"iris692020103","libelle_territoire":"Plan du Loup"}},
{"type":"Feature","geometry":null,"properties":{"code_territoire":"iris692590602","libelle_territoire":"Ernest Renan"}},
{"type":"Feature","geometry":null,"properties":{"code_territoire":"iris693830104","libelle_territoire":"Bonnel-Servient"}},
{"type":"Feature","geometry":null,"properties":{"code_territoire":"iris692530000","libelle_territoire":"Tupin-et-Semons (commune non irisée)"}},
{"type":"Feature","geometry":null,"properties":{"code_territoire":"iris691910102","libelle_territoire":"Ouest"}},
{"type":"Feature","geometry":null,"properties":{"code_territoire":"iris690190201","libelle_territoire":"Saint-Jean-d'Ardières"}},
{"type":"Feature","geometry":null,"properties":{"code_territoire":"iris692490000","libelle_territoire":"Thurins (commune non irisée)"}},
{"type":"Feature","geometry":null,"properties":{"code_territoire":"iris690840000","libelle_territoire":"Fleurie (commune non irisée)"}},
{"type":"Feature","geometry":null,"properties":{"code_territoire":"iris690400101","libelle_territoire":"Centre"}},
{"type":"Feature","geometry":null,"properties":{"code_territoire":"iris690470000","libelle_territoire":"Charnay (commune non irisée)"}},
{"type":"Feature","geometry":null,"properties":{"code_territoire":"iris692600000","libelle_territoire":"Vernaison (commune non irisée)"}},
{"type":"Feature","geometry":null,"properties":{"code_territoire":"iris692430102","libelle_territoire":"Nord-Ouest"}},
{"type":"Feature","geometry":null,"properties":{"code_territoire":"iris690290402","libelle_territoire":"Centre"}},
{"type":"Feature","geometry":null,"properties":{"code_territoire":"iris693870302","libelle_territoire":"Saint-Louis"}},
{"type":"Feature","geometry":null,"properties":{"code_territoire":"iris690340102","libelle_territoire":"Cuire-Le Bas"}},
{"type":"Feature","geometry":null,"properties":{"code_territoire":"iris690890202","libelle_territoire":"Francheville-Le Bas Nord"}},
{"type":"Feature","geometry":null,"properties":{"code_territoire":"iris691350000","libelle_territoire":"Deux-Grosnes (commune non irisée)"}},
{"type":"Feature","geometry":null,"properties":{"code_territoire":"iris693840401","libelle_territoire":"Saint-Exupéry-Popy"}},
{"type":"Feature","geometry":null,"properties":{"code_territoire":"iris691370000","libelle_territoire":"Montmelas-Saint-Sorlin (commune non irisée)"}},
{"type":"Feature","geometry":null,"properties":{"code_territoire":"iris690910101","libelle_territoire":"Vernes Haut"}},
{"type":"Feature","geometry":null,"properties":{"code_territoire":"iris691490202","libelle_territoire":"Bussière"}},
{"type":"Feature","geometry":null,"properties":{"code_territoire":"iris692040301","libelle_territoire":"Centre-Bourg"}},
{"type":"Feature","geometry":null,"properties":{"code_territoire":"iris692080000","libelle_territoire":"Saint-Germain-Nuelles (commune non irisée)"}},
{"type":"Feature","geometry":null,"properties":{"code_territoire":"iris691970000","libelle_territoire":"Saint-Étienne-des-Oullières (commune non irisée)"}},
{"type":"Feature","geometry":null,"properties":{"code_territoire":"iris692900401","libelle_territoire":"Bel-Air 1"}},
{"type":"Feature","geometry":null,"properties":{"code_territoire":"iris693870901","libelle_territoire":"La Mouche-Le Port"}},
{"type":"Feature","geometry":null,"properties":{"code_territoire":"iris692820101","libelle_territoire":"Le Rontet"}},
{"type":"Feature","geometry":null,"properties":{"code_territoire":"iris690770000","libelle_territoire":"Dracé (commune non irisée)"}},
{"type":"Feature","geometry":null,"properties":{"code_territoire":"iris692630000","libelle_territoire":"Villechenève (commune non irisée)"}},
{"type":"Feature","geometry":null,"properties":{"code_territoire":"iris692820401","libelle_territoire":"Les Panettes"}},
{"type":"Feature","geometry":null,"properties":{"code_territoire":"iris691800000","libelle_territoire":"Saint-André-la-Côte (commune non irisée)"}},
{"type":"Feature","geometry":null,"properties":{"code_territoire":"iris690340602","libelle_territoire":"Vassieux"}},
{"type":"Feature","geometry":null,"properties":{"code_territoire":"iris691630000","libelle_territoire":"Quincieux (commune non irisée)"}},
{"type":"Feature","geometry":null,"properties":{"code_territoire":"iris692661002","libelle_territoire":"Zola-Pressensé Est"}},
{"type":"Feature","geometry":null,"properties":{"code_territoire":"iris690810103","libelle_territoire":"Le Pérollier"}},
{"type":"Feature","geometry":null,"properties":{"code_territoire":"iris692020202","libelle_territoire":"Chavril"}},
{"type":"Feature","geometry":null,"properties":{"code_territoire":"iris690820000","libelle_territoire":"Émeringes (commune non irisée)"}},
{"type":"Feature","geometry":null,"properties":{"code_territoire":"iris692661703","libelle_territoire":"Fays-Bon Coin"}},
{"type":"Feature","geometry":null,"properties":{"code_territoire":"iris692830101","libelle_territoire":"Mions Nord"}},
{"type":"Feature","geometry":null,"properties":{"code_territoire":"iris690290205","libelle_territoire":"Route de Genas-Aliende"}},
{"type":"Feature","geometry":null,"properties":{"code_territoire":"iris690810302","libelle_territoire":"Valvert"}},
{"type":"Feature","geometry":null,"properties":{"code_territoire":"iris690340302","libelle_territoire":"Jean Moulin-de Gaulle"}},
{"type":"Feature","geometry":null,"properties":{"code_territoire":"iris692710105","libelle_territoire":"Tarentelles"}},
{"type":"Feature","geometry":null,"properties":{"code_territoire":"iris692020203","libelle_territoire":"Les Provinces"}},
{"type":"Feature","geometry":null,"properties":{"code_territoire":"iris693860402","libelle_territoire":"Saxe-Bossuet"}},
{"type":"Feature","geometry":null,"properties":{"code_territoire":"iris692640301","libelle_territoire":"Garet"}},
{"type":"Feature","geometry":null,"properties":{"code_territoire":"iris693870602","libelle_territoire":"Le Fleuve"}},
{"type":"Feature","geometry":null,"properties":{"code_territoire":"iris691320000","libelle_territoire":"Meys (commune non irisée)"}},
{"type":"Feature","geometry":null,"properties":{"code_territoire":"iris692661704","libelle_territoire":"Fays-Est"}},
{"type":"Feature","geometry":null,"properties":{"code_territoire":"iris692560501","libelle_territoire":"Pont des Planches"}},
{"type":"Feature","geometry":null,"properties":{"code_territoire":"iris692660403","libelle_territoire":"Tonkin Nord"}},
{"type":"Feature","geometry":null,"properties":{"code_territoire":"iris691000102","libelle_territoire":"Yvours"}},
{"type":"Feature","geometry":null,"properties":{"code_territoire":"iris693830502","libelle_territoire":"Paul Bert-Maisons Neuves"}},
{"type":"Feature","geometry":null,"properties":{"code_territoire":"iris692020401","libelle_territoire":"Les Balmes"}},
{"type":"Feature","geometry":null,"properties":{"code_territoire":"iris693840202","libelle_territoire":"Grande Rue-Bertone"}},
{"type":"Feature","geometry":null,"properties":{"code_territoire":"iris691000101","libelle_territoire":"Centre"}},
{"type":"Feature","geometry":null,"properties":{"code_territoire":"iris690290101","libelle_territoire":"Les Genêts-Hôpitaux"}},
{"type":"Feature","geometry":null,"properties":{"code_territoire":"iris693850404","libelle_territoire":"Albéric Pont"}},
{"type":"Feature","geometry":null,"properties":{"code_territoire":"iris693890607","libelle_territoire":"Le Plateau"}},
{"type":"Feature","geometry":null,"properties":{"code_territoire":"iris692860301","libelle_territoire":"Velette"}},
{"type":"Feature","geometry":null,"properties":{"code_territoire":"iris691620000","libelle_territoire":"Quincié-en-Beaujolais (commune non irisée)"}},
{"type":"Feature","geometry":null,"properties":{"code_territoire":"iris692290000","libelle_territoire":"Saint-Nizier-d'Azergues (commune non irisée)"}},
{"type":"Feature","geometry":null,"properties":{"code_territoire":"iris690290602","libelle_territoire":"Essarts Sud"}},
{"type":"Feature","geometry":null,"properties":{"code_territoire":"iris693830401","libelle_territoire":"Villette Gare"}},
{"type":"Feature","geometry":null,"properties":{"code_territoire":"iris690460000","libelle_territoire":"Charly (commune non irisée)"}},
{"type":"Feature","geometry":null,"properties":{"code_territoire":"iris693850101","libelle_territoire":"Saint-Paul"}},
{"type":"Feature","geometry":null,"properties":{"code_territoire":"iris692820201","libelle_territoire":"La Jacquière"}},
{"type":"Feature","geometry":null,"properties":{"code_territoire":"iris692590204","libelle_territoire":"Max Barel"}},
{"type":"Feature","geometry":null,"properties":{"code_territoire":"iris692160000","libelle_territoire":"Saint-Julien-sur-Bibost (commune non irisée)"}},
{"type":"Feature","geometry":null,"properties":{"code_territoire":"iris692860201","libelle_territoire":"Alagniers Sud"}},
{"type":"Feature","geometry":null,"properties":{"code_territoire":"iris692380000","libelle_territoire":"Saint-Symphorien-sur-Coise (commune non irisée)"}},
{"type":"Feature","geometry":null,"properties":{"code_territoire":"iris690910301","libelle_territoire":"Freydière-Bans"}},
{"type":"Feature","geometry":null,"properties":{"code_territoire":"iris693830402","libelle_territoire":"Richerand-Petites Sœurs"}},
{"type":"Feature","geometry":null,"properties":{"code_territoire":"iris693820302","libelle_territoire":"Ampère-Ainay"}},
{"type":"Feature","geometry":null,"properties":{"code_territoire":"iris690930000","libelle_territoire":"Grandris (commune non irisée)"}},
{"type":"Feature","geometry":null,"properties":{"code_territoire":"iris692670000","libelle_territoire":"Villié-Morgon (commune non irisée)"}},
{"type":"Feature","geometry":null,"properties":{"code_territoire":"iris692590502","libelle_territoire":"Léo Lagrange"}},
{"type":"Feature","geometry":null,"properties":{"code_territoire":"iris692400000","libelle_territoire":"Saint-Vincent-de-Reins (commune non irisée)"}},
{"type":"Feature","geometry":null,"properties":{"code_territoire":"iris691690000","libelle_territoire":"Ronno (commune non irisée)"}},
{"type":"Feature","geometry":null,"properties":{"code_territoire":"iris690270104","libelle_territoire":"Centre-Plaine d'Élite"}},
{"type":"Feature","geometry":null,"properties":{"code_territoire":"iris690880103","libelle_territoire":"Les Marronniers"}},
{"type":"Feature","geometry":null,"properties":{"code_territoire":"iris691660000","libelle_territoire":"Riverie (commune non irisée)"}},
{"type":"Feature","geometry":null,"properties":{"code_territoire":"iris692661701","libelle_territoire":"Jacques Monod"}},
{"type":"Feature","geometry":null,"properties":{"code_territoire":"iris693820504","libelle_territoire":"Sainte-Blandine-Casimir Perier"}},
{"type":"Feature","geometry":null,"properties":{"code_territoire":"iris691270000","libelle_territoire":"Marcy-l'Étoile (commune non irisée)"}},
{"type":"Feature","geometry":null,"properties":{"code_territoire":"iris693830603","libelle_territoire":"Saint-Maximin-Sisley"}},
{"type":"Feature","geometry":null,"properties":{"code_territoire":"iris693830803","libelle_territoire":"Grange Blanche"}},
{"type":"Feature","geometry":null,"properties":{"code_territoire":"iris692590701","libelle_territoire":"Georges Lévy"}},
{"type":"Feature","geometry":null,"properties":{"code_territoire":"iris692170000","libelle_territoire":"Saint-Just-d'Avray (commune non irisée)"}},
{"type":"Feature","geometry":null,"properties":{"code_territoire":"iris693830701","libelle_territoire":"Genas CFEL"}},
{"type":"Feature","geometry":null,"properties":{"code_territoire":"iris692970000","libelle_territoire":"Ternay (commune non irisée)"}},
{"type":"Feature","geometry":null,"properties":{"code_territoire":"iris693810303","libelle_territoire":"Annonciade-Saint-Benoit"}},
{"type":"Feature","geometry":null,"properties":{"code_territoire":"iris693870501","libelle_territoire":"Jules Brunard"}},
{"type":"Feature","geometry":null,"properties":{"code_territoire":"iris692661205","libelle_territoire":"Tolstoï Nord"}},
{"type":"Feature","geometry":null,"properties":{"code_territoire":"iris693880204","libelle_territoire":"Montplaisir Sud"}},
{"type":"Feature","geometry":null,"properties":{"code_territoire":"iris691990301","libelle_territoire":"L'Arsenal Nord"}},
{"type":"Feature","geometry":null,"properties":{"code_territoire":"iris690290401","libelle_territoire":"Hôtel de Ville Alsace-Lorraine"}},
{"type":"Feature","geometry":null,"properties":{"code_territoire":"iris692560302","libelle_territoire":"Grolières-Noirettes"}},
{"type":"Feature","geometry":null,"properties":{"code_territoire":"iris692660703","libelle_territoire":"Buers Sud"}},
{"type":"Feature","geometry":null,"properties":{"code_territoire":"iris692661202","libelle_territoire":"Albert Thomas"}},
{"type":"Feature","geometry":null,"properties":{"code_territoire":"iris690060102","libelle_territoire":"Contour"}},
{"type":"Feature","geometry":null,"properties":{"code_territoire":"iris692480000","libelle_territoire":"Thizy-les-Bourgs (commune non irisée)"}},
{"type":"Feature","geometry":null,"properties":{"code_territoire":"iris692820204","libelle_territoire":"Les Gaulnes"}},
{"type":"Feature","geometry":null,"properties":{"code_territoire":"iris690910103","libelle_territoire":"Les Coteaux"}},
{"type":"Feature","geometry":null,"properties":{"code_territoire":"iris691190000","libelle_territoire":"Longes (commune non irisée)"}},
{"type":"Feature","geometry":null,"properties":{"code_territoire":"iris692650000","libelle_territoire":"Ville-sur-Jarnioux (commune non irisée)"}},
{"type":"Feature","geometry":null,"properties":{"code_territoire":"iris693890203","libelle_territoire":"Rochecardon-Gare de Vaise"}},
{"type":"Feature","geometry":null,"properties":{"code_territoire":"iris693820202","libelle_territoire":"Bellecour-Antonin Gourju"}},
{"type":"Feature","geometry":null,"properties":{"code_territoire":"iris693860602","libelle_territoire":"Bossuet Ney"}},
{"type":"Feature","geometry":null,"properties":{"code_territoire":"iris692640501","libelle_territoire":"Nord-Ouest"}},
{"type":"Feature","geometry":null,"properties":{"code_territoire":"iris692830103","libelle_territoire":"Mions Ouest"}},
{"type":"Feature","geometry":null,"properties":{"code_territoire":"iris691310000","libelle_territoire":"Messimy (commune non irisée)"}},
{"type":"Feature","geometry":null,"properties":{"code_territoire":"iris690290204","libelle_territoire":"Terraillon-Plein Sud"}},
{"type":"Feature","geometry":null,"properties":{"code_territoire":"iris691880000","libelle_territoire":"Saint-Clément-sur-Valsonne (commune non irisée)"}},
{"type":"Feature","geometry":null,"properties":{"code_territoire":"iris690810102","libelle_territoire":"Vianney"}},
{"type":"Feature","geometry":null,"properties":{"code_territoire":"iris693860304","libelle_territoire":"Les Brotteaux"}},
{"type":"Feature","geometry":null,"properties":{"code_territoire":"iris693880602","libelle_territoire":"Grange Rouge"}},
{"type":"Feature","geometry":null,"properties":{"code_territoire":"iris691650000","libelle_territoire":"Régnié-Durette (commune non irisée)"}},
{"type":"Feature","geometry":null,"properties":{"code_territoire":"iris692661101","libelle_territoire":"Gratte-Ciel"}},
{"type":"Feature","geometry":null,"properties":{"code_territoire":"iris691480000","libelle_territoire":"Orliénas (commune non irisée)"}},
{"type":"Feature","geometry":null,"properties":{"code_territoire":"iris691930000","libelle_territoire":"Saint-Cyr-sur-le-Rhône (commune non irisée)"}},
{"type":"Feature","geometry":null,"properties":{"code_territoire":"iris692560601","libelle_territoire":"Écoin-Thibaude"}},
{"type":"Feature","geometry":null,"properties":{"code_territoire":"iris693850104","libelle_territoire":"Quarantaine-Les Étroits"}},
{"type":"Feature","geometry":null,"properties":{"code_territoire":"iris693860603","libelle_territoire":"Juliette Récamier"}},
{"type":"Feature","geometry":null,"properties":{"code_territoire":"iris690340104","libelle_territoire":"Coste-Croix-Rousse"}},
{"type":"Feature","geometry":null,"properties":{"code_territoire":"iris691540000","libelle_territoire":"Pollionnay (commune non irisée)"}},
{"type":"Feature","geometry":null,"properties":{"code_territoire":"iris690340401","libelle_territoire":"Magnolles-Pasteur"}},
{"type":"Feature","geometry":null,"properties":{"code_territoire":"iris690560000","libelle_territoire":"Chessy (commune non irisée)"}},
{"type":"Feature","geometry":null,"properties":{"code_territoire":"iris692820502","libelle_territoire":"Le Trillet"}},
{"type":"Feature","geometry":null,"properties":{"code_territoire":"iris690340501","libelle_territoire":"Pasteur"}},
{"type":"Feature","geometry":null,"properties":{"code_territoire":"iris690340503","libelle_territoire":"Montessuy Est"}},
{"type":"Feature","geometry":null,"properties":{"code_territoire":"iris692750110","libelle_territoire":"La Soie"}},
{"type":"Feature","geometry":null,"properties":{"code_territoire":"iris692020301","libelle_territoire":"Fontanières"}},
{"type":"Feature","geometry":null,"properties":{"code_territoire":"iris690340103","libelle_territoire":"Pierre Brunier"}},
{"type":"Feature","geometry":null,"properties":{"code_territoire":"iris692640203","libelle_territoire":"Lamartine"}},
{"type":"Feature","geometry":null,"properties":{"code_territoire":"iris690290201","libelle_territoire":"Gérard Philipe-Ferdinand Buisson"}},
{"type":"Feature","geometry":null,"properties":{"code_territoire":"iris692550000","libelle_territoire":"Vaugneray (commune non irisée)"}},
{"type":"Feature","geometry":null,"properties":{"code_territoire":"iris691760000","libelle_territoire":"Soucieu-en-Jarrest (commune non irisée)"}},
{"type":"Feature","geometry":null,"properties":{"code_territoire":"iris693820503","libelle_territoire":"Verdun-Suchet"}},
{"type":"Feature","geometry":null,"properties":{"code_territoire":"iris692040205","libelle_territoire":"Clos Chaurand"}},
{"type":"Feature","geometry":null,"properties":{"code_territoire":"iris691840000","libelle_territoire":"Sainte-Catherine (commune non irisée)"}},
{"type":"Feature","geometry":null,"properties":{"code_territoire":"iris690780000","libelle_territoire":"Duerne (commune non irisée)"}},
{"type":"Feature","geometry":null,"properties":{"code_territoire":"iris690180000","libelle_territoire":"Beaujeu (commune non irisée)"}},
{"type":"Feature","geometry":null,"properties":{"code_territoire":"iris691490201","libelle_territoire":"Cadière"}},
{"type":"Feature","geometry":null,"properties":{"code_territoire":"iris690340701","libelle_territoire":"Perica-Caluire"}},
{"type":"Feature","geometry":null,"properties":{"code_territoire":"iris692590302","libelle_territoire":"Henri Wallon"}},
{"type":"Feature","geometry":null,"properties":{"code_territoire":"iris691990401","libelle_territoire":"Clochette Nord"}},
{"type":"Feature","geometry":null,"properties":{"code_territoire":"iris692660201","libelle_territoire":"Doua"}},
{"type":"Feature","geometry":null,"properties":{"code_territoire":"iris690690103","libelle_territoire":"Est"}},
{"type":"Feature","geometry":null,"properties":{"code_territoire":"iris692520000","libelle_territoire":"Trèves (commune non irisée)"}},
{"type":"Feature","geometry":null,"properties":{"code_territoire":"iris690810101","libelle_territoire":"Les Sources"}},
{"type":"Feature","geometry":null,"properties":{"code_territoire":"iris692770102","libelle_territoire":"Bourg"}},
{"type":"Feature","geometry":null,"properties":{"code_territoire":"iris693860503","libelle_territoire":"Vauban"}},
{"type":"Feature","geometry":null,"properties":{"code_territoire":"iris691710000","libelle_territoire":"Sain-Bel (commune non irisée)"}},
{"type":"Feature","geometry":null,"properties":{"code_territoire":"iris693880404","libelle_territoire":"Mairie"}},
{"type":"Feature","geometry":null,"properties":{"code_territoire":"iris691860000","libelle_territoire":"Saint-Clément-de-Vers (commune non irisée)"}},
{"type":"Feature","geometry":null,"properties":{"code_territoire":"iris691870000","libelle_territoire":"Saint-Clément-les-Places (commune non irisée)"}},
{"type":"Feature","geometry":null,"properties":{"code_territoire":"iris692000000","libelle_territoire":"Saint-Forgeux (commune non irisée)"}},
{"type":"Feature","geometry":null,"properties":{"code_territoire":"iris693840301","libelle_territoire":"Deleuvre-Henon"}},
{"type":"Feature","geometry":null,"properties":{"code_territoire":"iris692860501","libelle_territoire":"Perica-La Roue"}},
{"type":"Feature","geometry":null,"properties":{"code_territoire":"iris690290301","libelle_territoire":"Bron Sud"}},
{"type":"Feature","geometry":null,"properties":{"code_territoire":"iris691700000","libelle_territoire":"Rontalon (commune non irisée)"}},
{"type":"Feature","geometry":null,"properties":{"code_territoire":"iris692820203","libelle_territoire":"Les Balmes"}},
{"type":"Feature","geometry":null,"properties":{"code_territoire":"iris692900104","libelle_territoire":"Colette-Plaine de Sayte"}},
{"type":"Feature","geometry":null,"properties":{"code_territoire":"iris692990000","libelle_territoire":"Colombier-Saugnieu (commune non irisée)"}},
{"type":"Feature","geometry":null,"properties":{"code_territoire":"iris691060000","libelle_territoire":"Lachassagne (commune non irisée)"}},
{"type":"Feature","geometry":null,"properties":{"code_territoire":"iris692040102","libelle_territoire":"Ouest Saint-Genois"}},
{"type":"Feature","geometry":null,"properties":{"code_territoire":"iris692661401","libelle_territoire":"Droits de l'Homme"}},
{"type":"Feature","geometry":null,"properties":{"code_territoire":"iris692661204","libelle_territoire":"Gratte-Ciel Est"}},
{"type":"Feature","geometry":null,"properties":{"code_territoire":"iris691920000","libelle_territoire":"Saint-Cyr-le-Chatoux (commune non irisée)"}},
{"type":"Feature","geometry":null,"properties":{"code_territoire":"iris691490302","libelle_territoire":"Glacière-Revoyet"}},
{"type":"Feature","geometry":null,"properties":{"code_territoire":"iris690650000","libelle_territoire":"Corcelles-en-Beaujolais (commune non irisée)"}},
{"type":"Feature","geometry":null,"properties":{"code_territoire":"iris692830102","libelle_territoire":"Mions Centre"}},
{"type":"Feature","geometry":null,"properties":{"code_territoire":"iris693820401","libelle_territoire":"Gailleton-Auguste Comte"}},
{"type":"Feature","geometry":null,"properties":{"code_territoire":"iris692040203","libelle_territoire":"Champlong"}},
{"type":"Feature","geometry":null,"properties":{"code_territoire":"iris692950000","libelle_territoire":"Simandres (commune non irisée)"}},
{"type":"Feature","geometry":null,"properties":{"code_territoire":"iris693840102","libelle_territoire":"Boucle Louis Thevenet"}},
{"type":"Feature","geometry":null,"properties":{"code_territoire":"iris691430102","libelle_territoire":"Zone Industrielle"}},
{"type":"Feature","geometry":null,"properties":{"code_territoire":"iris691730000","libelle_territoire":"Sarcey (commune non irisée)"}},
{"type":"Feature","geometry":null,"properties":{"code_territoire":"iris690620000","libelle_territoire":"Coise (commune non irisée)"}},
{"type":"Feature","geometry":null,"properties":{"code_territoire":"iris693820203","libelle_territoire":"Grande Poste"}},
{"type":"Feature","geometry":null,"properties":{"code_territoire":"iris692040103","libelle_territoire":"Basses Barolles"}},
{"type":"Feature","geometry":null,"properties":{"code_territoire":"iris690290104","libelle_territoire":"Ferdinand Buisson Église"}},
{"type":"Feature","geometry":null,"properties":{"code_territoire":"iris690740000","libelle_territoire":"Denicé (commune non irisée)"}},
{"type":"Feature","geometry":null,"properties":{"code_territoire":"iris690720105","libelle_territoire":"Est"}},
{"type":"Feature","geometry":null,"properties":{"code_territoire":"iris693890301","libelle_territoire":"Salengro"}},
{"type":"Feature","geometry":null,"properties":{"code_territoire":"iris693860301","libelle_territoire":"Maréchal Lyautey"}},
{"type":"Feature","geometry":null,"properties":{"code_territoire":"iris690340402","libelle_territoire":"Magnolles-Aristide Briand"}},
{"type":"Feature","geometry":null,"properties":{"code_territoire":"iris692710102","libelle_territoire":"Chassieu le Bas"}},
{"type":"Feature","geometry":null,"properties":{"code_territoire":"iris691380000","libelle_territoire":"Montromant (commune non irisée)"}},
{"type":"Feature","geometry":null,"properties":{"code_territoire":"iris690320000","libelle_territoire":"Bully (commune non irisée)"}},
{"type":"Feature","geometry":null,"properties":{"code_territoire":"iris692660902","libelle_territoire":"Les Poulettes"}},
{"type":"Feature","geometry":null,"properties":{"code_territoire":"iris690230000","libelle_territoire":"Blacé (commune non irisée)"}},
{"type":"Feature","geometry":null,"properties":{"code_territoire":"iris693880301","libelle_territoire":"Laennec"}},
{"type":"Feature","geometry":null,"properties":{"code_territoire":"iris690340601","libelle_territoire":"Maréchal Foch"}},
{"type":"Feature","geometry":null,"properties":{"code_territoire":"iris691070000","libelle_territoire":"Lamure-sur-Azergues (commune non irisée)"}},
{"type":"Feature","geometry":null,"properties":{"code_territoire":"iris692890000","libelle_territoire":"Saint-Pierre-de-Chandieu (commune non irisée)"}},
{"type":"Feature","geometry":null,"properties":{"code_territoire":"iris693820102","libelle_territoire":"Mercière-Grolée"}},
{"type":"Feature","geometry":null,"properties":{"code_territoire":"iris692020201","libelle_territoire":"Saint-Luc"}},
{"type":"Feature","geometry":null,"properties":{"code_territoire":"iris693850302","libelle_territoire":"Champvert Mairie"}},
{"type":"Feature","geometry":null,"properties":{"code_territoire":"iris692250000","libelle_territoire":"Saint-Marcel-l'Éclairé (commune non irisée)"}},
{"type":"Feature","geometry":null,"properties":{"code_territoire":"iris693880502","libelle_territoire":"La Plaine"}},
{"type":"Feature","geometry":null,"properties":{"code_territoire":"iris690890301","libelle_territoire":"Bel-Air Alai"}},
{"type":"Feature","geometry":null,"properties":{"code_territoire":"iris692860401","libelle_territoire":"Ravel"}},
{"type":"Feature","geometry":null,"properties":{"code_territoire":"iris693860601","libelle_territoire":"Jules Ferry"}},
{"type":"Feature","geometry":null,"properties":{"code_territoire":"iris690390000","libelle_territoire":"Chamelet (commune non irisée)"}},
{"type":"Feature","geometry":null,"properties":{"code_territoire":"iris693880901","libelle_territoire":"Petite Guille"}},
{"type":"Feature","geometry":null,"properties":{"code_territoire":"iris690290203","libelle_territoire":"Caravelle"}},
{"type":"Feature","geometry":null,"properties":{"code_territoire":"iris691120000","libelle_territoire":"Lentilly (commune non irisée)"}},
{"type":"Feature","geometry":null,"properties":{"code_territoire":"iris692720000","libelle_territoire":"Communay (commune non irisée)"}},
{"type":"Feature","geometry":null,"properties":{"code_territoire":"iris692590102","libelle_territoire":"Gabriel Péri"}},
{"type":"Feature","geometry":null,"properties":{"code_territoire":"iris691420101","libelle_territoire":"Le Roule"}},
{"type":"Feature","geometry":null,"properties":{"code_territoire":"iris693880101","libelle_territoire":"Jean Moulin"}},
{"type":"Feature","geometry":null,"properties":{"code_territoire":"iris692340000","libelle_territoire":"Saint-Romain-de-Popey (commune non irisée)"}},
{"type":"Feature","geometry":null,"properties":{"code_territoire":"iris692590103","libelle_territoire":"Centre-Nord"}},
{"type":"Feature","geometry":null,"properties":{"code_territoire":"iris693870101","libelle_territoire":"Pasteur"}},
{"type":"Feature","geometry":null,"properties":{"code_territoire":"iris693890102","libelle_territoire":"Les Trois Gouttes-Grand Champ"}},
{"type":"Feature","geometry":null,"properties":{"code_territoire":"iris692760102","libelle_territoire":"Géraniums-Champlantier-La Bégude"}},
{"type":"Feature","geometry":null,"properties":{"code_territoire":"iris692661402","libelle_territoire":"Damidot"}},
{"type":"Feature","geometry":null,"properties":{"code_territoire":"iris692330000","libelle_territoire":"Saint-Romain-au-Mont-d'Or (commune non irisée)"}},
{"type":"Feature","geometry":null,"properties":{"code_territoire":"iris693870403","libelle_territoire":"Route de Vienne"}},
{"type":"Feature","geometry":null,"properties":{"code_territoire":"iris690420000","libelle_territoire":"La Chapelle-sur-Coise (commune non irisée)"}},
{"type":"Feature","geometry":null,"properties":{"code_territoire":"iris691390000","libelle_territoire":"Montrottier (commune non irisée)"}},
{"type":"Feature","geometry":null,"properties":{"code_territoire":"iris692420000","libelle_territoire":"Taponas (commune non irisée)"}},
{"type":"Feature","geometry":null,"properties":{"code_territoire":"iris693860101","libelle_territoire":"Cité Internationale"}},
{"type":"Feature","geometry":null,"properties":{"code_territoire":"iris693870801","libelle_territoire":"Marcel Mérieux"}},
{"type":"Feature","geometry":null,"properties":{"code_territoire":"iris691790000","libelle_territoire":"Beauvallon (commune non irisée)"}},
{"type":"Feature","geometry":null,"properties":{"code_territoire":"iris692660501","libelle_territoire":"Croix Luizet Ouest"}},
{"type":"Feature","geometry":null,"properties":{"code_territoire":"iris690220000","libelle_territoire":"Bibost (commune non irisée)"}},
{"type":"Feature","geometry":null,"properties":{"code_territoire":"iris690130000","libelle_territoire":"Arnas (commune non irisée)"}},
{"type":"Feature","geometry":null,"properties":{"code_territoire":"iris691680000","libelle_territoire":"Rochetaillée-sur-Saône (commune non irisée)"}},
{"type":"Feature","geometry":null,"properties":{"code_territoire":"iris692680000","libelle_territoire":"Vourles (commune non irisée)"}},
{"type":"Feature","geometry":null,"properties":{"code_territoire":"iris690910202","libelle_territoire":"Canal"}},
{"type":"Feature","geometry":null,"properties":{"code_territoire":"iris692860402","libelle_territoire":"Alagniers Nord"}},
{"type":"Feature","geometry":null,"properties":{"code_territoire":"iris692440101","libelle_territoire":"Vallon de Charbonnières"}},
{"type":"Feature","geometry":null,"properties":{"code_territoire":"iris690970000","libelle_territoire":"Les Haies (commune non irisée)"}},
{"type":"Feature","geometry":null,"properties":{"code_territoire":"iris692710104","libelle_territoire":"Les Coteaux"}},
{"type":"Feature","geometry":null,"properties":{"code_territoire":"iris691820000","libelle_territoire":"Saint-Bonnet-des-Bruyères (commune non irisée)"}},
{"type":"Feature","geometry":null,"properties":{"code_territoire":"iris690630000","libelle_territoire":"Collonges-au-Mont-d'Or (commune non irisée)"}},
{"type":"Feature","geometry":null,"properties":{"code_territoire":"iris690580000","libelle_territoire":"Chiroubles (commune non irisée)"}},
{"type":"Feature","geometry":null,"properties":{"code_territoire":"iris691810000","libelle_territoire":"Saint-Appolinaire (commune non irisée)"}},
{"type":"Feature","geometry":null,"properties":{"code_territoire":"iris690450000","libelle_territoire":"Charentay (commune non irisée)"}},
{"type":"Feature","geometry":null,"properties":{"code_territoire":"iris691510000","libelle_territoire":"Le Perréon (commune non irisée)"}},
{"type":"Feature","geometry":null,"properties":{"code_territoire":"iris692900403","libelle_territoire":"Bel-Air 3"}},
{"type":"Feature","geometry":null,"properties":{"code_territoire":"iris690610000","libelle_territoire":"Cogny (commune non irisée)"}},
{"type":"Feature","geometry":null,"properties":{"code_territoire":"iris692660202","libelle_territoire":"11 Novembre"}},
{"type":"Feature","geometry":null,"properties":{"code_territoire":"iris690140000","libelle_territoire":"Aveize (commune non irisée)"}},
{"type":"Feature","geometry":null,"properties":{"code_territoire":"iris691260000","libelle_territoire":"Marcy (commune non irisée)"}},
{"type":"Feature","geometry":null,"properties":{"code_territoire":"iris691750000","libelle_territoire":"Savigny (commune non irisée)"}},
{"type":"Feature","geometry":null,"properties":{"code_territoire":"iris693880402","libelle_territoire":"La Trinité-Mermoz"}},
{"type":"Feature","geometry":null,"properties":{"code_territoire":"iris693870301","libelle_territoire":"Victor Basch"}},
{"type":"Feature","geometry":null,"properties":{"code_territoire":"iris692860202","libelle_territoire":"Mont Blanc"}},
{"type":"Feature","geometry":null,"properties":{"code_territoire":"iris691490501","libelle_territoire":"Centre-Nord Oullins"}},
{"type":"Feature","geometry":null,"properties":{"code_territoire":"iris690750000","libelle_territoire":"Dième (commune non irisée)"}},
{"type":"Feature","geometry":null,"properties":{"code_territoire":"iris692661503","libelle_territoire":"Grandclément"}},
{"type":"Feature","geometry":null,"properties":{"code_territoire":"iris692190000","libelle_territoire":"Saint-Laurent-d'Agny (commune non irisée)"}},
{"type":"Feature","geometry":null,"properties":{"code_territoire":"iris692640601","libelle_territoire":"Belleroche"}},
{"type":"Feature","geometry":null,"properties":{"code_territoire":"iris690260000","libelle_territoire":"Le Breuil (commune non irisée)"}},
{"type":"Feature","geometry":null,"properties":{"code_territoire":"iris690080000","libelle_territoire":"Ancy (commune non irisée)"}},
{"type":"Feature","geometry":null,"properties":{"code_territoire":"iris693840303","libelle_territoire":"Mairie-Tabareau"}},
{"type":"Feature","geometry":null,"properties":{"code_territoire":"iris692661602","libelle_territoire":"Bonnevay"}},
{"type":"Feature","geometry":null,"properties":{"code_territoire":"iris692440102","libelle_territoire":"Tassin-Le Bourg"}},
{"type":"Feature","geometry":null,"properties":{"code_territoire":"iris691340000","libelle_territoire":"Moiré (commune non irisée)"}},
{"type":"Feature","geometry":null,"properties":{"code_territoire":"iris692820104","libelle_territoire":"Le Carreau Nord"}},
{"type":"Feature","geometry":null,"properties":{"code_territoire":"iris690880102","libelle_territoire":"Bord de Saône"}},
{"type":"Feature","geometry":null,"properties":{"code_territoire":"iris690670000","libelle_territoire":"Courzieu (commune non irisée)"}},
{"type":"Feature","geometry":null,"properties":{"code_territoire":"iris693880401","libelle_territoire":"Latarget-Mermoz"}},
{"type":"Feature","geometry":null,"properties":{"code_territoire":"iris693860302","libelle_territoire":"Kléber"}},
{"type":"Feature","geometry":null,"properties":{"code_territoire":"iris690340303","libelle_territoire":"Montchoisi"}},
{"type":"Feature","geometry":null,"properties":{"code_territoire":"iris690440000","libelle_territoire":"Charbonnières-les-Bains (commune non irisée)"}},
{"type":"Feature","geometry":null,"properties":{"code_territoire":"iris693810501","libelle_territoire":"Mairie-Martinière"}},
{"type":"Feature","geometry":null,"properties":{"code_territoire":"iris693880902","libelle_territoire":"Grand Trou"}},
{"type":"Feature","geometry":null,"properties":{"code_territoire":"iris692820202","libelle_territoire":"Le Dérippe"}},
{"type":"Feature","geometry":null,"properties":{"code_territoire":"iris692590403","libelle_territoire":"Armstrong"}},
{"type":"Feature","geometry":null,"properties":{"code_territoire":"iris693810102","libelle_territoire":"Louis Pradel"}},
{"type":"Feature","geometry":null,"properties":{"code_territoire":"iris690510000","libelle_territoire":"Chaussan (commune non irisée)"}},
{"type":"Feature","geometry":null,"properties":{"code_territoire":"iris692410000","libelle_territoire":"Taluyers (commune non irisée)"}},
{"type":"Feature","geometry":null,"properties":{"code_territoire":"iris690810104","libelle_territoire":"Les Serres-Tronchon"}},
{"type":"Feature","geometry":null,"properties":{"code_territoire":"iris690190101","libelle_territoire":"Est"}},
{"type":"Feature","geometry":null,"properties":{"code_territoire":"iris692590804","libelle_territoire":"R.V.I."}},
{"type":"Feature","geometry":null,"properties":{"code_territoire":"iris692820403","libelle_territoire":"Les Plantées"}},
{"type":"Feature","geometry":null,"properties":{"code_territoire":"iris693820402","libelle_territoire":"Carnot-Charité"}},
{"type":"Feature","geometry":null,"properties":{"code_territoire":"iris690170000","libelle_territoire":"Bagnols (commune non irisée)"}},
{"type":"Feature","geometry":null,"properties":{"code_territoire":"iris690810105","libelle_territoire":"Vivier"}},
{"type":"Feature","geometry":null,"properties":{"code_territoire":"iris692090000","libelle_territoire":"Saint-Igny-de-Vers (commune non irisée)"}},
{"type":"Feature","geometry":null,"properties":{"code_territoire":"iris693850203","libelle_territoire":"Loyasse-Saint-Just"}},
{"type":"Feature","geometry":null,"properties":{"code_territoire":"iris693880801","libelle_territoire":"Moulin à Vent"}},
{"type":"Feature","geometry":null,"properties":{"code_territoire":"iris690720104","libelle_territoire":"Centre"}},
{"type":"Feature","geometry":null,"properties":{"code_territoire":"iris691490102","libelle_territoire":"Célestins Merlo"}},
{"type":"Feature","geometry":null,"properties":{"code_territoire":"iris691090000","libelle_territoire":"Lantignié (commune non irisée)"}},
{"type":"Feature","geometry":null,"properties":{"code_territoire":"iris690890201","libelle_territoire":"Francheville-Le Bas Sud"}},
{"type":"Feature","geometry":null,"properties":{"code_territoire":"iris693890403","libelle_territoire":"Le Béal-Gorge de Loup"}},
{"type":"Feature","geometry":null,"properties":{"code_territoire":"iris693890103","libelle_territoire":"Louis Bouquet-Jean Perrin"}},
{"type":"Feature","geometry":null,"properties":{"code_territoire":"iris693860303","libelle_territoire":"Vitton"}},
{"type":"Feature","geometry":null,"properties":{"code_territoire":"iris693820103","libelle_territoire":"Jacobins"}},
{"type":"Feature","geometry":null,"properties":{"code_territoire":"iris691410000","libelle_territoire":"Mornant (commune non irisée)"}},
{"type":"Feature","geometry":null,"properties":{"code_territoire":"iris692560602","libelle_territoire":"Vernay"}},
{"type":"Feature","geometry":null,"properties":{"code_territoire":"iris690190102","libelle_territoire":"Ouest"}},
{"type":"Feature","geometry":null,"properties":{"code_territoire":"iris692710101","libelle_territoire":"Eurexpo Mi-Plaine"}},
{"type":"Feature","geometry":null,"properties":{"code_territoire":"iris692750112","libelle_territoire":"Grand Large-Montout"}},
{"type":"Feature","geometry":null,"properties":{"code_territoire":"iris692280000","libelle_territoire":"Chabanière (commune non irisée)"}},
{"type":"Feature","geometry":null,"properties":{"code_territoire":"iris690330000","libelle_territoire":"Cailloux-sur-Fontaines (commune non irisée)"}},
{"type":"Feature","geometry":null,"properties":{"code_territoire":"iris691250000","libelle_territoire":"Marcilly-d'Azergues (commune non irisée)"}},
{"type":"Feature","geometry":null,"properties":{"code_territoire":"iris690800000","libelle_territoire":"Échalas (commune non irisée)"}},
{"type":"Feature","geometry":null,"properties":{"code_territoire":"iris692660301","libelle_territoire":"Tonkin Sud"}},
{"type":"Feature","geometry":null,"properties":{"code_territoire":"iris693830204","libelle_territoire":"Saint-Amour"}},
{"type":"Feature","geometry":null,"properties":{"code_territoire":"iris692820103","libelle_territoire":"Le Carreau Ouest"}},
{"type":"Feature","geometry":null,"properties":{"code_territoire":"iris692070000","libelle_territoire":"Saint-Germain-au-Mont-d'Or (commune non irisée)"}},
{"type":"Feature","geometry":null,"properties":{"code_territoire":"iris690920102","libelle_territoire":"Ouilly Les Rousses Chervinges"}},
{"type":"Feature","geometry":null,"properties":{"code_territoire":"iris690880101","libelle_territoire":"Le Bourg"}},
{"type":"Feature","geometry":null,"properties":{"code_territoire":"iris693820501","libelle_territoire":"Montrochet-Marché-Gare"}},
{"type":"Feature","geometry":null,"properties":{"code_territoire":"iris692560401","libelle_territoire":"Sauveteur Sud"}},
{"type":"Feature","geometry":null,"properties":{"code_territoire":"iris692430104","libelle_territoire":"Plata"}},
{"type":"Feature","geometry":null,"properties":{"code_territoire":"iris691990201","libelle_territoire":"Centre Ville"}},
{"type":"Feature","geometry":null,"properties":{"code_territoire":"iris690090000","libelle_territoire":"Anse (commune non irisée)"}},
{"type":"Feature","geometry":null,"properties":{"code_territoire":"iris692860101","libelle_territoire":"Vancia"}},
{"type":"Feature","geometry":null,"properties":{"code_territoire":"iris692590801","libelle_territoire":"Clos Verger"}},
{"type":"Feature","geometry":null,"properties":{"code_territoire":"iris691200000","libelle_territoire":"Longessaigne (commune non irisée)"}},
{"type":"Feature","geometry":null,"properties":{"code_territoire":"iris690120000","libelle_territoire":"Les Ardillats (commune non irisée)"}},
{"type":"Feature","geometry":null,"properties":{"code_territoire":"iris690270105","libelle_territoire":"Ouest"}},
{"type":"Feature","geometry":null,"properties":{"code_territoire":"iris690660000","libelle_territoire":"Cours (commune non irisée)"}},
{"type":"Feature","geometry":null,"properties":{"code_territoire":"iris693890302","libelle_territoire":"Saint-Simon-Marietton"}},
{"type":"Feature","geometry":null,"properties":{"code_territoire":"iris690370000","libelle_territoire":"Chambost-Allières (commune non irisée)"}},
{"type":"Feature","geometry":null,"properties":{"code_territoire":"iris693850504","libelle_territoire":"La Plaine Charcot"}},
{"type":"Feature","geometry":null,"properties":{"code_territoire":"iris692870102","libelle_territoire":"Les Hauts de Saint-Bonnet"}},
{"type":"Feature","geometry":null,"properties":{"code_territoire":"iris693870704","libelle_territoire":"Jean-Jaurès Sud"}},
{"type":"Feature","geometry":null,"properties":{"code_territoire":"iris691050000","libelle_territoire":"Lacenas (commune non irisée)"}},
{"type":"Feature","geometry":null,"properties":{"code_territoire":"iris692560201","libelle_territoire":"Village Centre"}},
{"type":"Feature","geometry":null,"properties":{"code_territoire":"iris690590000","libelle_territoire":"Civrieux-d'Azergues (commune non irisée)"}},
{"type":"Feature","geometry":null,"properties":{"code_territoire":"iris692860303","libelle_territoire":"Semailles Sud"}},
{"type":"Feature","geometry":null,"properties":{"code_territoire":"iris690010000","libelle_territoire":"Affoux (commune non irisée)"}},
{"type":"Feature","geometry":null,"properties":{"code_territoire":"iris692180000","libelle_territoire":"Saint-Lager (commune non irisée)"}},
{"type":"Feature","geometry":null,"properties":{"code_territoire":"iris691160000","libelle_territoire":"Limonest (commune non irisée)"}},
{"type":"Feature","geometry":null,"properties":{"code_territoire":"iris692661601","libelle_territoire":"Cusset-Ouest"}},
{"type":"Feature","geometry":null,"properties":{"code_territoire":"iris691420102","libelle_territoire":"Le Confluent"}},
{"type":"Feature","geometry":null,"properties":{"code_territoire":"iris692120000","libelle_territoire":"Saint-Jean-des-Vignes (commune non irisée)"}},
{"type":"Feature","geometry":null,"properties":{"code_territoire":"iris692800000","libelle_territoire":"Jons (commune non irisée)"}},
{"type":"Feature","geometry":null,"properties":{"code_territoire":"iris690520000","libelle_territoire":"Chazay-d'Azergues (commune non irisée)"}},
{"type":"Feature","geometry":null,"properties":{"code_territoire":"iris692750107","libelle_territoire":"Bonneveau"}},
{"type":"Feature","geometry":null,"properties":{"code_territoire":"iris692910102","libelle_territoire":"Centre Sud-Ouest"}},
{"type":"Feature","geometry":null,"properties":{"code_territoire":"iris690550000","libelle_territoire":"Les Chères (commune non irisée)"}},
{"type":"Feature","geometry":null,"properties":{"code_territoire":"iris691610000","libelle_territoire":"Propières (commune non irisée)"}},
{"type":"Feature","geometry":null,"properties":{"code_territoire":"iris690830000","libelle_territoire":"Éveux (commune non irisée)"}},
{"type":"Feature","geometry":null,"properties":{"code_territoire":"iris690570000","libelle_territoire":"Chevinay (commune non irisée)"}},
{"type":"Feature","geometry":null,"properties":{"code_territoire":"iris692880000","libelle_territoire":"Saint-Laurent-de-Mure (commune non irisée)"}},
{"type":"Feature","geometry":null,"properties":{"code_territoire":"iris692450000","libelle_territoire":"Ternand (commune non irisée)"}},
{"type":"Feature","geometry":null,"properties":{"code_territoire":"iris690960102","libelle_territoire":"Les Arboras"}},
{"type":"Feature","geometry":null,"properties":{"code_territoire":"iris693850204","libelle_territoire":"Radisson-Choulans"}},
{"type":"Feature","geometry":null,"properties":{"code_territoire":"iris693890604","libelle_territoire":"La Sauvegarde"}},
{"type":"Feature","geometry":null,"properties":{"code_territoire":"iris691150000","libelle_territoire":"Limas (commune non irisée)"}},
{"type":"Feature","geometry":null,"properties":{"code_territoire":"iris690720106","libelle_territoire":"Ouest"}},
{"type":"Feature","geometry":null,"properties":{"code_territoire":"iris693870603","libelle_territoire":"Le Rhône"}},
{"type":"Feature","geometry":null,"properties":{"code_territoire":"iris692640302","libelle_territoire":"Troussier-Fongraine"}},
{"type":"Feature","geometry":null,"properties":{"code_territoire":"iris692300000","libelle_territoire":"Sainte-Paule (commune non irisée)"}},
{"type":"Feature","geometry":null,"properties":{"code_territoire":"iris690270102","libelle_territoire":"Nord-Est"}},
{"type":"Feature","geometry":null,"properties":{"code_territoire":"iris692640201","libelle_territoire":"Béligny Est"}},
{"type":"Feature","geometry":null,"properties":{"code_territoire":"iris693810101","libelle_territoire":"Terreaux-Bât d'Argent"}},
{"type":"Feature","geometry":null,"properties":{"code_territoire":"iris691490402","libelle_territoire":"Saulaie"}},
{"type":"Feature","geometry":null,"properties":{"code_territoire":"iris691110000","libelle_territoire":"Légny (commune non irisée)"}},
{"type":"Feature","geometry":null,"properties":{"code_territoire":"iris692310000","libelle_territoire":"Saint-Pierre-la-Palud (commune non irisée)"}},
{"type":"Feature","geometry":null,"properties":{"code_territoire":"iris693870502","libelle_territoire":"Stalingrad"}},
{"type":"Feature","geometry":null,"properties":{"code_territoire":"iris693860501","libelle_territoire":"Mairie"}},
{"type":"Feature","geometry":null,"properties":{"code_territoire":"iris690690102","libelle_territoire":"Centre"}},
{"type":"Feature","geometry":null,"properties":{"code_territoire":"iris693880503","libelle_territoire":"Général André"}},
{"type":"Feature","geometry":null,"properties":{"code_territoire":"iris693890606","libelle_territoire":"Le Château"}},
{"type":"Feature","geometry":null,"properties":{"code_territoire":"iris692900202","libelle_territoire":"Marendiers"}},
{"type":"Feature","geometry":null,"properties":{"code_territoire":"iris691490502","libelle_territoire":"Centre-Sud Oullins"}},
{"type":"Feature","geometry":null,"properties":{"code_territoire":"iris691490303","libelle_territoire":"Montmein"}},
{"type":"Feature","geometry":null,"properties":{"code_territoire":"iris692790102","libelle_territoire":"Sud"}},
{"type":"Feature","geometry":null,"properties":{"code_territoire":"iris692661803","libelle_territoire":"Les Brosses"}},
{"type":"Feature","geometry":null,"properties":{"code_territoire":"iris693890101","libelle_territoire":"Montessuy-Le Vergoin"}},
{"type":"Feature","geometry":null,"properties":{"code_territoire":"iris692560101","libelle_territoire":"Les Îles"}},
{"type":"Feature","geometry":null,"properties":{"code_territoire":"iris691080000","libelle_territoire":"Lancié (commune non irisée)"}},
{"type":"Feature","geometry":null,"properties":{"code_territoire":"iris691170000","libelle_territoire":"Lissieu (commune non irisée)"}},
{"type":"Feature","geometry":null,"properties":{"code_territoire":"iris692710103","libelle_territoire":"Chassieu le Haut"}},
{"type":"Feature","geometry":null,"properties":{"code_territoire":"iris692820402","libelle_territoire":"Le Fort"}},
{"type":"Feature","geometry":null,"properties":{"code_territoire":"iris691430104","libelle_territoire":"Vosne-Tête Noire"}},
{"type":"Feature","geometry":null,"properties":{"code_territoire":"iris692820301","libelle_territoire":"Centre"}},
{"type":"Feature","geometry":null,"properties":{"code_territoire":"iris692590301","libelle_territoire":"Jean Moulin"}},
{"type":"Feature","geometry":null,"properties":{"code_territoire":"iris693890501","libelle_territoire":"La Grivière"}},
{"type":"Feature","geometry":null,"properties":{"code_territoire":"iris692640303","libelle_territoire":"Quarantaine"}},
{"type":"Feature","geometry":null,"properties":{"code_territoire":"iris692460000","libelle_territoire":"Theizé (commune non irisée)"}},
{"type":"Feature","geometry":null,"properties":{"code_territoire":"iris690680000","libelle_territoire":"Couzon-au-Mont-d'Or (commune non irisée)"}},
{"type":"Feature","geometry":null,"properties":{"code_territoire":"iris693810301","libelle_territoire":"Grande Côte-Bon Pasteur"}},
{"type":"Feature","geometry":null,"properties":{"code_territoire":"iris692500000","libelle_territoire":"La Tour-de-Salvagny (commune non irisée)"}},
{"type":"Feature","geometry":null,"properties":{"code_territoire":"iris692930000","libelle_territoire":"Sathonay-Village (commune non irisée)"}},
{"type":"Feature","geometry":null,"properties":{"code_territoire":"iris692750106","libelle_territoire":"Charpieu"}},
{"type":"Feature","geometry":null,"properties":{"code_territoire":"iris692750104","libelle_territoire":"Cornavent"}},
{"type":"Feature","geometry":null,"properties":{"code_territoire":"iris692150000","libelle_territoire":"Saint-Julien (commune non irisée)"}},
{"type":"Feature","geometry":null,"properties":{"code_territoire":"iris692661303","libelle_territoire":"Maisons Neuves"}},
{"type":"Feature","geometry":null,"properties":{"code_territoire":"iris691040000","libelle_territoire":"Jullié (commune non irisée)"}},
{"type":"Feature","geometry":null,"properties":{"code_territoire":"iris692590802","libelle_territoire":"Parilly"}},
{"type":"Feature","geometry":null,"properties":{"code_territoire":"iris693820502","libelle_territoire":"Rambaud-Seguin"}},
{"type":"Feature","geometry":null,"properties":{"code_territoire":"iris692860302","libelle_territoire":"Leclerc"}},
{"type":"Feature","geometry":null,"properties":{"code_territoire":"iris692390000","libelle_territoire":"Saint-Vérand (commune non irisée)"}},
{"type":"Feature","geometry":null,"properties":{"code_territoire":"iris692900702","libelle_territoire":"Mi-Plaine-Manissieux"}},
{"type":"Feature","geometry":null,"properties":{"code_territoire":"iris693860502","libelle_territoire":"L'Europe"}},
{"type":"Feature","geometry":null,"properties":{"code_territoire":"iris692560203","libelle_territoire":"Village Nord"}},
{"type":"Feature","geometry":null,"properties":{"code_territoire":"iris692690000","libelle_territoire":"Yzeron (commune non irisée)"}},
{"type":"Feature","geometry":null,"properties":{"code_territoire":"iris690040000","libelle_territoire":"Alix (commune non irisée)"}},
{"type":"Feature","geometry":null,"properties":{"code_territoire":"iris692760101","libelle_territoire":"Les Razes"}},
{"type":"Feature","geometry":null,"properties":{"code_territoire":"iris692660502","libelle_territoire":"Croix Luizet Est"}},
{"type":"Feature","geometry":null,"properties":{"code_territoire":"iris692750103","libelle_territoire":"Berthaudières"}},
{"type":"Feature","geometry":null,"properties":{"code_territoire":"iris692560701","libelle_territoire":"La Soie-La Balme"}},
{"type":"Feature","geometry":null,"properties":{"code_territoire":"iris693880701","libelle_territoire":"Le Bocage"}},
{"type":"Feature","geometry":null,"properties":{"code_territoire":"iris693880203","libelle_territoire":"Montplaisir Nord"}},
{"type":"Feature","geometry":null,"properties":{"code_territoire":"iris690950000","libelle_territoire":"Grézieu-le-Marché (commune non irisée)"}},
{"type":"Feature","geometry":null,"properties":{"code_territoire":"iris692440201","libelle_territoire":"Centre Ville"}},
{"type":"Feature","geometry":null,"properties":{"code_territoire":"iris693830105","libelle_territoire":"Mutualité-Liberté"}},
{"type":"Feature","geometry":null,"properties":{"code_territoire":"iris692750111","libelle_territoire":"Les Marais"}},
{"type":"Feature","geometry":null,"properties":{"code_territoire":"iris692820501","libelle_territoire":"Mathiolan"}},
{"type":"Feature","geometry":null,"properties":{"code_territoire":"iris690270103","libelle_territoire":"Pérouses"}},
{"type":"Feature","geometry":null,"properties":{"code_territoire":"iris691670000","libelle_territoire":"Rivolet (commune non irisée)"}},
{"type":"Feature","geometry":null,"properties":{"code_territoire":"iris690500000","libelle_territoire":"Châtillon (commune non irisée)"}},
{"type":"Feature","geometry":null,"properties":{"code_territoire":"iris692750108","libelle_territoire":"Champ Blanc"}},
{"type":"Feature","geometry":null,"properties":{"code_territoire":"iris693880102","libelle_territoire":"Colbert"}},
{"type":"Feature","geometry":null,"properties":{"code_territoire":"iris693890502","libelle_territoire":"Champvert Nord"}},
{"type":"Feature","geometry":null,"properties":{"code_territoire":"iris691770000","libelle_territoire":"Sourcieux-les-Mines (commune non irisée)"}},
{"type":"Feature","geometry":null,"properties":{"code_territoire":"iris693840502","libelle_territoire":"Gillet Serein"}},
{"type":"Feature","geometry":null,"properties":{"code_territoire":"iris693870701","libelle_territoire":"L'Artillerie-La Gare"}},
{"type":"Feature","geometry":null,"properties":{"code_territoire":"iris692140000","libelle_territoire":"Saint-Jean-la-Bussière (commune non irisée)"}},
{"type":"Feature","geometry":null,"properties":{"code_territoire":"iris693830102","libelle_territoire":"Jussieu"}},
{"type":"Feature","geometry":null,"properties":{"code_territoire":"iris693850103","libelle_territoire":"Saint-Georges"}},
{"type":"Feature","geometry":null,"properties":{"code_territoire":"iris692660302","libelle_territoire":"Espace-Central"}},
{"type":"Feature","geometry":null,"properties":{"code_territoire":"iris693840103","libelle_territoire":"Commandant Arnaud-Dumont d'Urville"}},
{"type":"Feature","geometry":null,"properties":{"code_territoire":"iris693830301","libelle_territoire":"Part Dieu"}},
{"type":"Feature","geometry":null,"properties":{"code_territoire":"iris692730104","libelle_territoire":"Taillis Romanette"}},
{"type":"Feature","geometry":null,"properties":{"code_territoire":"iris693850202","libelle_territoire":"La Sarra"}},
{"type":"Feature","geometry":null,"properties":{"code_territoire":"iris693830604","libelle_territoire":"Montbrilland-Guilloud"}},
{"type":"Feature","geometry":null,"properties":{"code_territoire":"iris693850603","libelle_territoire":"La Garde"}},
{"type":"Feature","geometry":null,"properties":{"code_territoire":"iris692590401","libelle_territoire":"Saint-Exupéry"}},
{"type":"Feature","geometry":null,"properties":{"code_territoire":"iris692900602","libelle_territoire":"Village Est"}},
{"type":"Feature","geometry":null,"properties":{"code_territoire":"iris693870503","libelle_territoire":"Lamothe"}},
{"type":"Feature","geometry":null,"properties":{"code_territoire":"iris692860502","libelle_territoire":"Village"}},
{"type":"Feature","geometry":null,"properties":{"code_territoire":"iris690600000","libelle_territoire":"Claveisolles (commune non irisée)"}},
{"type":"Feature","geometry":null,"properties":{"code_territoire":"iris691960000","libelle_territoire":"Saint-Didier-sur-Beaujeu (commune non irisée)"}},
{"type":"Feature","geometry":null,"properties":{"code_territoire":"iris690900000","libelle_territoire":"Frontenas (commune non irisée)"}},
{"type":"Feature","geometry":null,"properties":{"code_territoire":"iris690810301","libelle_territoire":"Charlier"}},
{"type":"Feature","geometry":null,"properties":{"code_territoire":"iris692780000","libelle_territoire":"Genay (commune non irisée)"}},
{"type":"Feature","geometry":null,"properties":{"code_territoire":"iris693810402","libelle_territoire":"Giraud-Saint-Vincent"}},
{"type":"Feature","geometry":null,"properties":{"code_territoire":"iris691300000","libelle_territoire":"Meaux-la-Montagne (commune non irisée)"}},
{"type":"Feature","geometry":null,"properties":{"code_territoire":"iris690430101","libelle_territoire":"Zone Centrale"}},
{"type":"Feature","geometry":null,"properties":{"code_territoire":"iris692560403","libelle_territoire":"Mas du Taureau Nord"}},
{"type":"Feature","geometry":null,"properties":{"code_territoire":"iris690070000","libelle_territoire":"Ampuis (commune non irisée)"}},
{"type":"Feature","geometry":null,"properties":{"code_territoire":"iris693870103","libelle_territoire":"Centre Berthelot"}},
{"type":"Feature","geometry":null,"properties":{"code_territoire":"iris693830602","libelle_territoire":"Dauphiné-Montluc"}},
{"type":"Feature","geometry":null,"properties":{"code_territoire":"iris693850402","libelle_territoire":"Saint-Irénée"}},
{"type":"Feature","geometry":null,"properties":{"code_territoire":"iris692060000","libelle_territoire":"Saint-Georges-de-Reneins (commune non irisée)"}},
{"type":"Feature","geometry":null,"properties":{"code_territoire":"iris690430102","libelle_territoire":"Zone Pavillonnaire"}},
{"type":"Feature","geometry":null,"properties":{"code_territoire":"iris693870703","libelle_territoire":"Cité Jardin"}},
{"type":"Feature","geometry":null,"properties":{"code_territoire":"iris691910101","libelle_territoire":"Est"}},
{"type":"Feature","geometry":null,"properties":{"code_territoire":"iris692040101","libelle_territoire":"Moly"}},
{"type":"Feature","geometry":null,"properties":{"code_territoire":"iris692900501","libelle_territoire":"Revaison Ouest"}},
{"type":"Feature","geometry":null,"properties":{"code_territoire":"iris693880903","libelle_territoire":"Montagny-Saint-Jean de Dieu"}},
{"type":"Feature","geometry":null,"properties":{"code_territoire":"iris690340105","libelle_territoire":"Coste Nord"}},
{"type":"Feature","geometry":null,"properties":{"code_territoire":"iris690290501","libelle_territoire":"Parilly Nord"}},
{"type":"Feature","geometry":null,"properties":{"code_territoire":"iris692590601","libelle_territoire":"Moulin à Vent"}},
{"type":"Feature","geometry":null,"properties":{"code_territoire":"iris690430103","libelle_territoire":"Zone Habitat Diffus"}},
{"type":"Feature","geometry":null,"properties":{"code_territoire":"iris692661502","libelle_territoire":"Genas"}},
{"type":"Feature","geometry":null,"properties":{"code_territoire":"iris692770101","libelle_territoire":"Grandes Terres Revoisson"}},
{"type":"Feature","geometry":null,"properties":{"code_territoire":"iris690300000","libelle_territoire":"Brullioles (commune non irisée)"}},
{"type":"Feature","geometry":null,"properties":{"code_territoire":"iris692900201","libelle_territoire":"Fouillouse"}},
{"type":"Feature","geometry":null,"properties":{"code_territoire":"iris693850501","libelle_territoire":"Les Battières"}},
{"type":"Feature","geometry":null,"properties":{"code_territoire":"iris693880104","libelle_territoire":"Marius Berliet Nord"}},
{"type":"Feature","geometry":null,"properties":{"code_territoire":"iris692560102","libelle_territoire":"Z.A. Est"}},
{"type":"Feature","geometry":null,"properties":{"code_territoire":"iris691210000","libelle_territoire":"Lozanne (commune non irisée)"}},
{"type":"Feature","geometry":null,"properties":{"code_territoire":"iris692900105","libelle_territoire":"Herriot-Carré Rostand"}},
{"type":"Feature","geometry":null,"properties":{"code_territoire":"iris692030000","libelle_territoire":"Saint-Genis-l'Argentière (commune non irisée)"}},
{"type":"Feature","geometry":null,"properties":{"code_territoire":"iris693810401","libelle_territoire":"Normale-Chartreux"}},
{"type":"Feature","geometry":null,"properties":{"code_territoire":"iris693830101","libelle_territoire":"Préfecture"}},
{"type":"Feature","geometry":null,"properties":{"code_territoire":"iris691100000","libelle_territoire":"Larajasse (commune non irisée)"}},
{"type":"Feature","geometry":null,"properties":{"code_territoire":"iris693860701","libelle_territoire":"Bellecombe-Thiers"}},
{"type":"Feature","geometry":null,"properties":{"code_territoire":"iris693840501","libelle_territoire":"Lyon Plage-Ypres"}},
{"type":"Feature","geometry":null,"properties":{"code_territoire":"iris692040201","libelle_territoire":"Hôpital"}},
{"type":"Feature","geometry":null,"properties":{"code_territoire":"iris692660101","libelle_territoire":"Charmettes"}},
{"type":"Feature","geometry":null,"properties":{"code_territoire":"iris691240000","libelle_territoire":"Marchampt (commune non irisée)"}},
{"type":"Feature","geometry":null,"properties":{"code_territoire":"iris691640000","libelle_territoire":"Ranchal (commune non irisée)"}},
{"type":"Feature","geometry":null,"properties":{"code_territoire":"iris692900101","libelle_territoire":"Bellevue"}},
{"type":"Feature","geometry":null,"properties":{"code_territoire":"iris693840101","libelle_territoire":"Herbouville-Gros Caillou"}},
{"type":"Feature","geometry":null,"properties":{"code_territoire":"iris693810304","libelle_territoire":"Chardonnet"}},
{"type":"Feature","geometry":null,"properties":{"code_territoire":"iris692770103","libelle_territoire":"Azieu"}},
{"type":"Feature","geometry":null,"properties":{"code_territoire":"iris690490000","libelle_territoire":"Chasselay (commune non irisée)"}},
{"type":"Feature","geometry":null,"properties":{"code_territoire":"iris691490301","libelle_territoire":"Glacière-Jomard"}},
{"type":"Feature","geometry":null,"properties":{"code_territoire":"iris693850201","libelle_territoire":"Fourvière-Antiquaille"}},
{"type":"Feature","geometry":null,"properties":{"code_territoire":"iris691890000","libelle_territoire":"Sainte-Colombe (commune non irisée)"}},
{"type":"Feature","geometry":null,"properties":{"code_territoire":"iris690380000","libelle_territoire":"Chambost-Longessaigne (commune non irisée)"}},
{"type":"Feature","geometry":null,"properties":{"code_territoire":"iris690960103","libelle_territoire":"Nouveau Grigny"}},
{"type":"Feature","geometry":null,"properties":{"code_territoire":"iris692560603","libelle_territoire":"Verchères"}},
{"type":"Feature","geometry":null,"properties":{"code_territoire":"iris691450000","libelle_territoire":"Odenas (commune non irisée)"}},
{"type":"Feature","geometry":null,"properties":{"code_territoire":"iris691990101","libelle_territoire":"Zone Industrielle"}},
{"type":"Feature","geometry":null,"properties":{"code_territoire":"iris693810302","libelle_territoire":"Trois Gaules"}},
{"type":"Feature","geometry":null,"properties":{"code_territoire":"iris693870102","libelle_territoire":"Universités"}},
{"type":"Feature","geometry":null,"properties":{"code_territoire":"iris690030000","libelle_territoire":"Albigny-sur-Saône (commune non irisée)"}},
{"type":"Feature","geometry":null,"properties":{"code_territoire":"iris693870802","libelle_territoire":"Tony Garnier"}},
{"type":"Feature","geometry":null,"properties":{"code_territoire":"iris693830501","libelle_territoire":"Villette-Paul Bert"}},
{"type":"Feature","geometry":null,"properties":{"code_territoire":"iris692560301","libelle_territoire":"Grappinière-Petit Pont"}},
{"type":"Feature","geometry":null,"properties":{"code_territoire":"iris693830203","libelle_territoire":"Saxe-Villeroy"}},
{"type":"Feature","geometry":null,"properties":{"code_territoire":"iris692870101","libelle_territoire":"Plein Soleil Zone Industrielle"}},
{"type":"Feature","geometry":null,"properties":{"code_territoire":"iris692020302","libelle_territoire":"Centre"}},
{"type":"Feature","geometry":null,"properties":{"code_territoire":"iris690340301","libelle_territoire":"Vernay"}},
{"type":"Feature","geometry":null,"properties":{"code_territoire":"iris692820601","libelle_territoire":"Les Marais"}},
{"type":"Feature","geometry":null,"properties":{"code_territoire":"iris690350000","libelle_territoire":"Cenves (commune non irisée)"}},
{"type":"Feature","geometry":null,"properties":{"code_territoire":"iris693830703","libelle_territoire":"Monchat-Bonnand"}},
{"type":"Feature","geometry":null,"properties":{"code_territoire":"iris692560702","libelle_territoire":"Dumas-Genas"}},
{"type":"Feature","geometry":null,"properties":{"code_territoire":"iris693870601","libelle_territoire":"Yves Farges"}},
{"type":"Feature","geometry":null,"properties":{"code_territoire":"iris691940102","libelle_territoire":"Centre et Sud-Est"}},
{"type":"Feature","geometry":null,"properties":{"code_territoire":"iris692661501","libelle_territoire":"Grandclément-Blum"}},
{"type":"Feature","geometry":null,"properties":{"code_territoire":"iris692660901","libelle_territoire":"Poulettes Nord"}},
{"type":"Feature","geometry":null,"properties":{"code_territoire":"iris692040302","libelle_territoire":"Centre-Entrée Nord"}},
{"type":"Feature","geometry":null,"properties":{"code_territoire":"iris693810202","libelle_territoire":"Capucins-Griffon"}},
{"type":"Feature","geometry":null,"properties":{"code_territoire":"iris693830403","libelle_territoire":"Pompidou"}},
{"type":"Feature","geometry":null,"properties":{"code_territoire":"iris692900102","libelle_territoire":"Alpes"}},
{"type":"Feature","geometry":null,"properties":{"code_territoire":"iris690540000","libelle_territoire":"Chénelette (commune non irisée)"}},
{"type":"Feature","geometry":null,"properties":{"code_territoire":"iris691180000","libelle_territoire":"Loire-sur-Rhône (commune non irisée)"}},
{"type":"Feature","geometry":null,"properties":{"code_territoire":"iris690060101","libelle_territoire":"Centre"}},
{"type":"Feature","geometry":null,"properties":{"code_territoire":"iris691780000","libelle_territoire":"Souzy (commune non irisée)"}},
{"type":"Feature","geometry":null,"properties":{"code_territoire":"iris692540000","libelle_territoire":"Valsonne (commune non irisée)"}},
{"type":"Feature","geometry":null,"properties":{"code_territoire":"iris692660103","libelle_territoire":"Charpenne-Wilson"}},
{"type":"Feature","geometry":null,"properties":{"code_territoire":"iris693850602","libelle_territoire":"Point du Jour"}},
{"type":"Feature","geometry":null,"properties":{"code_territoire":"iris692661302","libelle_territoire":"Ferrandière"}},
{"type":"Feature","geometry":null,"properties":{"code_territoire":"iris692660903","libelle_territoire":"Château Gaillard"}},
{"type":"Feature","geometry":null,"properties":{"code_territoire":"iris692440202","libelle_territoire":"Montribloud-Boyer"}},
{"type":"Feature","geometry":null,"properties":{"code_territoire":"iris690700000","libelle_territoire":"Cublize (commune non irisée)"}},
{"type":"Feature","geometry":null,"properties":{"code_territoire":"iris690890102","libelle_territoire":"Francheville-Le Haut Centre"}},
{"type":"Feature","geometry":null,"properties":{"code_territoire":"iris692661802","libelle_territoire":"Bel-Air"}},
{"type":"Feature","geometry":null,"properties":{"code_territoire":"iris692440203","libelle_territoire":"La Raude"}},
{"type":"Feature","geometry":null,"properties":{"code_territoire":"iris690810201","libelle_territoire":"Pole Enseignement-Recherche"}},
{"type":"Feature","geometry":null,"properties":{"code_territoire":"iris692360000","libelle_territoire":"Saint-Romain-en-Gier (commune non irisée)"}},
{"type":"Feature","geometry":null,"properties":{"code_territoire":"iris691220000","libelle_territoire":"Lucenay (commune non irisée)"}},
{"type":"Feature","geometry":null,"properties":{"code_territoire":"iris692810000","libelle_territoire":"Marennes (commune non irisée)"}},
{"type":"Feature","geometry":null,"properties":{"code_territoire":"iris692940000","libelle_territoire":"Sérézin-du-Rhône (commune non irisée)"}},
{"type":"Feature","geometry":null,"properties":{"code_territoire":"iris692590201","libelle_territoire":"Z.I. Vénissieux-Corbas-Saint-Priest"}},
{"type":"Feature","geometry":null,"properties":{"code_territoire":"iris692430103","libelle_territoire":"Sud"}},
{"type":"Feature","geometry":null,"properties":{"code_territoire":"iris691990302","libelle_territoire":"L'Arsenal Sud"}},
{"type":"Feature","geometry":null,"properties":{"code_territoire":"iris693880403","libelle_territoire":"Genton-Ranvier"}},
{"type":"Feature","geometry":null,"properties":{"code_territoire":"iris690290103","libelle_territoire":"Dubœuf-Camille Rousset"}},
{"type":"Feature","geometry":null,"properties":{"code_territoire":"iris690710000","libelle_territoire":"Curis-au-Mont-d'Or (commune non irisée)"}},
{"type":"Feature","geometry":null,"properties":{"code_territoire":"iris691720000","libelle_territoire":"Salles-Arbuissonnas-en-Beaujolais (commune non irisée)"}},
{"type":"Feature","geometry":null,"properties":{"code_territoire":"iris690240000","libelle_territoire":"Val d'Oingt (commune non irisée)"}},
{"type":"Feature","geometry":null,"properties":{"code_territoire":"iris690870000","libelle_territoire":"Fontaines-Saint-Martin (commune non irisée)"}},
{"type":"Feature","geometry":null,"properties":{"code_territoire":"iris692020101","libelle_territoire":"Chantegrillet"}},
{"type":"Feature","geometry":null,"properties":{"code_territoire":"iris693830601","libelle_territoire":"Rouget de Lisle-Félix Faure"}},
{"type":"Feature","geometry":null,"properties":{"code_territoire":"iris693830103","libelle_territoire":"Les Halles"}},
{"type":"Feature","geometry":null,"properties":{"code_territoire":"iris692850000","libelle_territoire":"Pusignan (commune non irisée)"}},
{"type":"Feature","geometry":null,"properties":{"code_territoire":"iris691990402","libelle_territoire":"Clochette Sud"}},
{"type":"Feature","geometry":null,"properties":{"code_territoire":"iris693830801","libelle_territoire":"Feuillat Harmonie"}},
{"type":"Feature","geometry":null,"properties":{"code_territoire":"iris692661801","libelle_territoire":"La Soie"}},
{"type":"Feature","geometry":null,"properties":{"code_territoire":"iris692770104","libelle_territoire":"Vurey"}},
{"type":"Feature","geometry":null,"properties":{"code_territoire":"iris692580000","libelle_territoire":"Vauxrenard (commune non irisée)"}},
{"type":"Feature","geometry":null,"properties":{"code_territoire":"iris690980000","libelle_territoire":"Les Halles (commune non irisée)"}},
{"type":"Feature","geometry":null,"properties":{"code_territoire":"iris693850502","libelle_territoire":"Ménival"}},
{"type":"Feature","geometry":null,"properties":{"code_territoire":"iris692980000","libelle_territoire":"Toussieu (commune non irisée)"}},
{"type":"Feature","geometry":null,"properties":{"code_territoire":"iris692730101","libelle_territoire":"Zone d'Activités"}},
{"type":"Feature","geometry":null,"properties":{"code_territoire":"iris692910101","libelle_territoire":"Centre Nord-Est"}},
{"type":"Feature","geometry":null,"properties":{"code_territoire":"iris692570000","libelle_territoire":"Vaux-en-Beaujolais (commune non irisée)"}},
{"type":"Feature","geometry":null,"properties":{"code_territoire":"iris692661301","libelle_territoire":"Tolstoï Sud"}},
{"type":"Feature","geometry":null,"properties":{"code_territoire":"iris693890303","libelle_territoire":"Mairie"}},
{"type":"Feature","geometry":null,"properties":{"code_territoire":"iris692730103","libelle_territoire":"Village Chambarras"}},
{"type":"Feature","geometry":null,"properties":{"code_territoire":"iris692200000","libelle_territoire":"Saint-Laurent-de-Chamousset (commune non irisée)"}},
{"type":"Feature","geometry":null,"properties":{"code_territoire":"iris693860403","libelle_territoire":"Edgard Quinet"}},
{"type":"Feature","geometry":null,"properties":{"code_territoire":"iris692640502","libelle_territoire":"Sud-Ouest"}},
{"type":"Feature","geometry":null,"properties":{"code_territoire":"iris690530000","libelle_territoire":"Chénas (commune non irisée)"}},
{"type":"Feature","geometry":null,"properties":{"code_territoire":"iris693830202","libelle_territoire":"Voltaire"}},
{"type":"Feature","geometry":null,"properties":{"code_territoire":"iris692750102","libelle_territoire":"Sablon"}},
{"type":"Feature","geometry":null,"properties":{"code_territoire":"iris692860102","libelle_territoire":"Crépieux"}},
{"type":"Feature","geometry":null,"properties":{"code_territoire":"iris692700000","libelle_territoire":"Chaponnay (commune non irisée)"}},
{"type":"Feature","geometry":null,"properties":{"code_territoire":"iris691400000","libelle_territoire":"Morancé (commune non irisée)"}},
{"type":"Feature","geometry":null,"properties":{"code_territoire":"iris692661804","libelle_territoire":"Poudrette"}},
{"type":"Feature","geometry":null,"properties":{"code_territoire":"iris690400102","libelle_territoire":"Contour"}},
{"type":"Feature","geometry":null,"properties":{"code_territoire":"iris691000103","libelle_territoire":"Venières"}},
{"type":"Feature","geometry":null,"properties":{"code_territoire":"iris693890201","libelle_territoire":"L'Industrie-Le Bourg"}},
{"type":"Feature","geometry":null,"properties":{"code_territoire":"iris692750101","libelle_territoire":"Centre"}},
{"type":"Feature","geometry":null,"properties":{"code_territoire":"iris690890101","libelle_territoire":"Francheville-Le Haut-Bruissin"}},
{"type":"Feature","geometry":null,"properties":{"code_territoire":"iris690340502","libelle_territoire":"Montessuy Ouest"}},
{"type":"Feature","geometry":null,"properties":{"code_territoire":"iris691990202","libelle_territoire":"Chassagnon"}},
{"type":"Feature","geometry":null,"properties":{"code_territoire":"iris692661702","libelle_territoire":"Réguillon"}},
{"type":"Feature","geometry":null,"properties":{"code_territoire":"iris692661203","libelle_territoire":"Gratte-Ciel Ouest"}},
{"type":"Feature","geometry":null,"properties":{"code_territoire":"iris692040202","libelle_territoire":"Zone d'Activités"}},
{"type":"Feature","geometry":null,"properties":{"code_territoire":"iris692640401","libelle_territoire":"Centre Ville Nord"}},
{"type":"Feature","geometry":null,"properties":{"code_territoire":"iris692270000","libelle_territoire":"Saint-Martin-en-Haut (commune non irisée)"}},
{"type":"Feature","geometry":null,"properties":{"code_territoire":"iris692050000","libelle_territoire":"Saint-Genis-les-Ollières (commune non irisée)"}},
{"type":"Feature","geometry":null,"properties":{"code_territoire":"iris692590803","libelle_territoire":"Jules Guesde"}},
{"type":"Feature","geometry":null,"properties":{"code_territoire":"iris691530000","libelle_territoire":"Poleymieux-au-Mont-d'Or (commune non irisée)"}},
{"type":"Feature","geometry":null,"properties":{"code_territoire":"iris692590203","libelle_territoire":"Charréard"}},
{"type":"Feature","geometry":null,"properties":{"code_territoire":"iris693840302","libelle_territoire":"Canuts-Denfert-Rochereau"}},
{"type":"Feature","geometry":null,"properties":{"code_territoire":"iris692830104","libelle_territoire":"Mions Sud-Est"}},
{"type":"Feature","geometry":null,"properties":{"code_territoire":"iris692900301","libelle_territoire":"Cité Berliet-La Gare"}},
{"type":"Feature","geometry":null,"properties":{"code_territoire":"iris692640402","libelle_territoire":"Centre Ville Sud"}},
{"type":"Feature","geometry":null,"properties":{"code_territoire":"iris693860103","libelle_territoire":"Les Belges"}},
{"type":"Feature","geometry":null,"properties":{"code_territoire":"iris690050000","libelle_territoire":"Ambérieux (commune non irisée)"}},
{"type":"Feature","geometry":null,"properties":{"code_territoire":"iris690910302","libelle_territoire":"Zone du Gier"}},
{"type":"Feature","geometry":null,"properties":{"code_territoire":"iris692960000","libelle_territoire":"Solaize (commune non irisée)"}},
{"type":"Feature","geometry":null,"properties":{"code_territoire":"iris691560000","libelle_territoire":"Pommiers (commune non irisée)"}},
{"type":"Feature","geometry":null,"properties":{"code_territoire":"iris692900302","libelle_territoire":"Garibaldi"}},
{"type":"Feature","geometry":null,"properties":{"code_territoire":"iris692900601","libelle_territoire":"Village Ouest"}},
{"type":"Feature","geometry":null,"properties":{"code_territoire":"iris690020000","libelle_territoire":"Aigueperse (commune non irisée)"}},
{"type":"Feature","geometry":null,"properties":{"code_territoire":"iris692750109","libelle_territoire":"Roosevelt-Wilson"}},
{"type":"Feature","geometry":null,"properties":{"code_territoire":"iris690290102","libelle_territoire":"Gendarmerie-Garenne"}},
{"type":"Feature","geometry":null,"properties":{"code_territoire":"iris690100102","libelle_territoire":"Nord"}},
{"type":"Feature","geometry":null,"properties":{"code_territoire":"iris691590000","libelle_territoire":"Porte des Pierres Dorées (commune non irisée)"}},
{"type":"Feature","geometry":null,"properties":{"code_territoire":"iris690860000","libelle_territoire":"Fleurieux-sur-l'Arbresle (commune non irisée)"}},
{"type":"Feature","geometry":null,"properties":{"code_territoire":"iris692660601","libelle_territoire":"Einstein-Salengro"}},
{"type":"Feature","geometry":null,"properties":{"code_territoire":"iris693820301","libelle_territoire":"Vaubecour-Mairie"}},
{"type":"Feature","geometry":null,"properties":{"code_territoire":"iris693870402","libelle_territoire":"Jean Macé"}},
{"type":"Feature","geometry":null,"properties":{"code_territoire":"iris693860401","libelle_territoire":"Molière"}},
{"type":"Feature","geometry":null,"properties":{"code_territoire":"iris693890202","libelle_territoire":"La Gare d'Eau"}},
{"type":"Feature","geometry":null,"properties":{"code_territoire":"iris693870202","libelle_territoire":"Le Prado"}},
{"type":"Feature","geometry":null,"properties":{"code_territoire":"iris691940101","libelle_territoire":"Centre et Nord-Ouest"}},
{"type":"Feature","geometry":null,"properties":{"code_territoire":"iris690360000","libelle_territoire":"Cercié (commune non irisée)"}},
{"type":"Feature","geometry":null,"properties":{"code_territoire":"iris690210000","libelle_territoire":"Bessenay (commune non irisée)"}},
{"type":"Feature","geometry":null,"properties":{"code_territoire":"iris691030000","libelle_territoire":"Juliénas (commune non irisée)"}},
{"type":"Feature","geometry":null,"properties":{"code_territoire":"iris691020000","libelle_territoire":"Joux (commune non irisée)"}},
{"type":"Feature","geometry":null,"properties":{"code_territoire":"iris692660402","libelle_territoire":"Tonkin Ouest"}},
{"type":"Feature","geometry":null,"properties":{"code_territoire":"iris693860702","libelle_territoire":"Les Charmettes-Lafayette"}},
{"type":"Feature","geometry":null,"properties":{"code_territoire":"iris693840201","libelle_territoire":"Hôpital-Saint-Denis"}},
{"type":"Feature","geometry":null,"properties":{"code_territoire":"iris692590104","libelle_territoire":"Centre Ville"}},
{"type":"Feature","geometry":null,"properties":{"code_territoire":"iris690920103","libelle_territoire":"Le Bourg La Claire"}},
{"type":"Feature","geometry":null,"properties":{"code_territoire":"iris690280000","libelle_territoire":"Brindas (commune non irisée)"}},
{"type":"Feature","geometry":null,"properties":{"code_territoire":"iris692900502","libelle_territoire":"Revaison Est"}},
{"type":"Feature","geometry":null,"properties":{"code_territoire":"iris692350000","libelle_territoire":"Saint-Romain-en-Gal (commune non irisée)"}},
{"type":"Feature","geometry":null,"properties":{"code_territoire":"iris692750105","libelle_territoire":"Le Prainet"}},
{"type":"Feature","geometry":null,"properties":{"code_territoire":"iris690990000","libelle_territoire":"Haute-Rivoire (commune non irisée)"}},
{"type":"Feature","geometry":null,"properties":{"code_territoire":"iris692840000","libelle_territoire":"Montanay (commune non irisée)"}},
{"type":"Feature","geometry":null,"properties":{"code_territoire":"iris691360000","libelle_territoire":"Montagny (commune non irisée)"}},
{"type":"Feature","geometry":null,"properties":{"code_territoire":"iris690920101","libelle_territoire":"La Chartonnière"}},
{"type":"Feature","geometry":null,"properties":{"code_territoire":"iris691740000","libelle_territoire":"Les Sauvages (commune non irisée)"}},
{"type":"Feature","geometry":null,"properties":{"code_territoire":"iris693880501","libelle_territoire":"Pinel Santy"}},
{"type":"Feature","geometry":null,"properties":{"code_territoire":"iris691600000","libelle_territoire":"Poule-les-Écharmeaux (commune non irisée)"}},
{"type":"Feature","geometry":null,"properties":{"code_territoire":"iris693870705","libelle_territoire":"Jean-Jaurès Nord"}},
{"type":"Feature","geometry":null,"properties":{"code_territoire":"iris693880105","libelle_territoire":"Marius Berliet Sud"}},
{"type":"Feature","geometry":null,"properties":{"code_territoire":"iris690760000","libelle_territoire":"Dommartin (commune non irisée)"}},
{"type":"Feature","geometry":null,"properties":{"code_territoire":"iris690340101","libelle_territoire":"Cuire-Le Haut"}},
{"type":"Feature","geometry":null,"properties":{"code_territoire":"iris691570000","libelle_territoire":"Vindry-sur-Turdine (commune non irisée)"}},
{"type":"Feature","geometry":null,"properties":{"code_territoire":"iris693890401","libelle_territoire":"Saint-Pierre de Vaise"}},
{"type":"Feature","geometry":null,"properties":{"code_territoire":"iris693890104","libelle_territoire":"Balmont Est"}},
{"type":"Feature","geometry":null,"properties":{"code_territoire":"iris693830802","libelle_territoire":"Trarieux-Lacassagne"}},
{"type":"Feature","geometry":null,"properties":{"code_territoire":"iris690910201","libelle_territoire":"Les Plaines"}},
{"type":"Feature","geometry":null,"properties":{"code_territoire":"iris691550000","libelle_territoire":"Pomeys (commune non irisée)"}},
{"type":"Feature","geometry":null,"properties":{"code_territoire":"iris690160000","libelle_territoire":"Azolette (commune non irisée)"}},
{"type":"Feature","geometry":null,"properties":{"code_territoire":"iris692640202","libelle_territoire":"Béligny Ouest"}},
{"type":"Feature","geometry":null,"properties":{"code_territoire":"iris692640101","libelle_territoire":"Zone d'Activités Est 1"}},
{"type":"Feature","geometry":null,"properties":{"code_territoire":"iris692660801","libelle_territoire":"Saint-Jean"}},
{"type":"Feature","geometry":null,"properties":{"code_territoire":"iris690690101","libelle_territoire":"Ouest"}},
{"type":"Feature","geometry":null,"properties":{"code_territoire":"iris690940000","libelle_territoire":"Grézieu-la-Varenne (commune non irisée)"}},
{"type":"Feature","geometry":null,"properties":{"code_territoire":"iris692040204","libelle_territoire":"Guilloux"}},
{"type":"Feature","geometry":null,"properties":{"code_territoire":"iris690290502","libelle_territoire":"Parilly Sud"}},
{"type":"Feature","geometry":null,"properties":{"code_territoire":"iris692590501","libelle_territoire":"Louis Pergaud"}},
{"type":"Feature","geometry":null,"properties":{"code_territoire":"iris691830000","libelle_territoire":"Saint-Bonnet-le-Troncy (commune non irisée)"}},
{"type":"Feature","geometry":null,"properties":{"code_territoire":"iris693880601","libelle_territoire":"Langlet Santy"}},
{"type":"Feature","geometry":null,"properties":{"code_territoire":"iris690640000","libelle_territoire":"Condrieu (commune non irisée)"}},
{"type":"Feature","geometry":null,"properties":{"code_territoire":"iris692790101","libelle_territoire":"Nord"}},
{"type":"Feature","geometry":null,"properties":{"code_territoire":"iris693830702","libelle_territoire":"Jules Verne-Acacias"}},
{"type":"Feature","geometry":null,"properties":{"code_territoire":"iris692661403","libelle_territoire":"Perralière"}},
{"type":"Feature","geometry":null,"properties":{"code_territoire":"iris691330000","libelle_territoire":"Millery (commune non irisée)"}},
{"type":"Feature","geometry":null,"properties":{"code_territoire":"iris690270101","libelle_territoire":"Zone d'Activités"}},
{"type":"Feature","geometry":null,"properties":{"code_territoire":"iris692590402","libelle_territoire":"Anatole France"}},
{"type":"Feature","geometry":null,"properties":{"code_territoire":"iris692900103","libelle_territoire":"Diderot-Aliende"}},
{"type":"Feature","geometry":null,"properties":{"code_territoire":"iris690290601","libelle_territoire":"Essarts Nord"}},
{"type":"Feature","geometry":null,"properties":{"code_territoire":"iris693880702","libelle_territoire":"États-Unis"}},
{"type":"Feature","geometry":null,"properties":{"code_territoire":"iris691430103","libelle_territoire":"Aventurière-Simandre"}},
{"type":"Feature","geometry":null,"properties":{"code_territoire":"iris692730102","libelle_territoire":"Balmes Bourlione"}},
{"type":"Feature","geometry":null,"properties":{"code_territoire":"iris691900000","libelle_territoire":"Sainte-Consorce (commune non irisée)"}},
{"type":"Feature","geometry":null,"properties":{"code_territoire":"iris691130000","libelle_territoire":"Létra (commune non irisée)"}},
{"type":"Feature","geometry":null,"properties":{"code_territoire":"iris692860304","libelle_territoire":"Semailles Nord"}},
{"type":"Feature","geometry":null,"properties":{"code_territoire":"iris693890402","libelle_territoire":"Arloing-l'Observance"}},
{"type":"Feature","geometry":null,"properties":{"code_territoire":"iris692590303","libelle_territoire":"Charles Perrault"}},
{"type":"Feature","geometry":null,"properties":{"code_territoire":"iris692590202","libelle_territoire":"Pasteur"}},
{"type":"Feature","geometry":null,"properties":{"code_territoire":"iris692920000","libelle_territoire":"Sathonay-Camp (commune non irisée)"}},
{"type":"Feature","geometry":null,"properties":{"code_territoire":"iris693880302","libelle_territoire":"Rockefeller-La Buire"}},
{"type":"Feature","geometry":null,"properties":{"code_territoire":"iris690310000","libelle_territoire":"Brussieu (commune non irisée)"}},
{"type":"Feature","geometry":null,"properties":{"code_territoire":"iris693830404","libelle_territoire":"Baraban-Ferrandière"}},
{"type":"Feature","geometry":null,"properties":{"code_territoire":"iris692560405","libelle_territoire":"Pré de L'Herbe"}},
{"type":"Feature","geometry":null,"properties":{"code_territoire":"iris691490401","libelle_territoire":"Clavelière-Malletière"}},
{"type":"Feature","geometry":null,"properties":{"code_territoire":"iris692590101","libelle_territoire":"Tache Velin"}},
{"type":"Feature","geometry":null,"properties":{"code_territoire":"iris692900701","libelle_territoire":"Porte des Alpes"}},
{"type":"Feature","geometry":null,"properties":{"code_territoire":"iris691490605","libelle_territoire":"Le Perron-Garanjou"}},
{"type":"Feature","geometry":null,"properties":{"code_territoire":"iris691490603","libelle_territoire":"Haute Roche Ouest"}},
{"type":"Feature","geometry":null,"properties":{"code_territoire":"iris691490602","libelle_territoire":"Haute Roche Est"}},
{"type":"Feature","geometry":null,"properties":{"code_territoire":"iris691490601","libelle_territoire":"Zone d'Activités"}},
{"type":"Feature","geometry":null,"properties":{"code_territoire":"iris691490606","libelle_territoire":"Hôpital"}},
{"type":"Feature","geometry":null,"properties":{"code_territoire":"iris691490604","libelle_territoire":"Centre Pierre-Bénite"}}
]}