{"type":"FeatureCollection", "features": [
{"type":"Feature","geometry":{"type":"Polygon","coordinates":[[[6.82173,47.57331],[6.82897,47.5692],[6.84319,47.56668],[6.8456,47.57367],[6.8475,47.57252],[6.85068,47.57365],[6.85007,47.56759],[6.85463,47.5667],[6.85777,47.56802],[6.85664,47.57511],[6.86141,47.58237],[6.85888,47.58231],[6.85914,47.58492],[6.84509,47.5821],[6.84101,47.57968],[6.84073,47.57664],[6.83669,47.57534],[6.83082,47.57382],[6.82122,47.57444],[6.82173,47.57331]]]},"properties":{"code_territoire":"iris900110000","libelle_territoire":"Bermont (commune non irisée)"}},
{"type":"Feature","geometry":{"type":"Polygon","coordinates":[[[6.90953,47.64495],[6.91077,47.63861],[6.93552,47.6372],[6.93905,47.63528],[6.95754,47.63852],[6.96638,47.63705],[6.97101,47.63675],[6.97396,47.64244],[6.97015,47.65479],[6.94873,47.65406],[6.93974,47.65051],[6.93515,47.65525],[6.92617,47.65542],[6.90953,47.64495]]]},"properties":{"code_territoire":"iris900120000","libelle_territoire":"Bessoncourt (commune non irisée)"}},
{"type":"Feature","geometry":{"type":"Polygon","coordinates":[[[6.95768,47.68909],[6.96315,47.67053],[6.9737,47.67369],[6.97679,47.67824],[6.96758,47.69041],[6.95768,47.68909]]]},"properties":{"code_territoire":"iris900130000","libelle_territoire":"Bethonvilliers (commune non irisée)"}},
{"type":"Feature","geometry":{"type":"Polygon","coordinates":[[[6.99753,47.56002],[6.99291,47.55551],[6.99245,47.54965],[6.99715,47.54711],[7.01009,47.54641],[7.01319,47.54442],[7.0259,47.54499],[7.02795,47.5418],[7.03891,47.54426],[7.03959,47.54626],[7.03353,47.55035],[7.03325,47.55618],[7.02795,47.55898],[7.02811,47.56187],[7.02158,47.56268],[7.02165,47.56398],[7.00964,47.56497],[7.00699,47.56937],[7.00201,47.56419],[7.00082,47.56076],[6.99753,47.56002]]]},"properties":{"code_territoire":"iris900140000","libelle_territoire":"Boron (commune non irisée)"}},
{"type":"Feature","geometry":{"type":"Polygon","coordinates":[[[6.86302,47.59223],[6.86459,47.59364],[6.86012,47.59493],[6.85934,47.59935],[6.85066,47.60031],[6.84675,47.60462],[6.84021,47.60288],[6.8359,47.59916],[6.83668,47.59461],[6.83994,47.59493],[6.84025,47.59237],[6.84898,47.59022],[6.8497,47.58632],[6.85336,47.58685],[6.85452,47.58923],[6.85931,47.58907],[6.85998,47.5922],[6.86302,47.59223]]]},"properties":{"code_territoire":"iris900150000","libelle_territoire":"Botans (commune non irisée)"}},
{"type":"Feature","geometry":{"type":"Polygon","coordinates":[[[6.95069,47.69676],[6.9524,47.70429],[6.94912,47.7091],[6.95248,47.7169],[6.94692,47.7131],[6.94351,47.70347],[6.94653,47.69822],[6.95069,47.69676]]]},"properties":{"code_territoire":"iris900160000","libelle_territoire":"Bourg-sous-Châtelet (commune non irisée)"}},
{"type":"Feature","geometry":{"type":"Polygon","coordinates":[[[6.88337,47.55551],[6.89019,47.55009],[6.90198,47.54998],[6.90571,47.54796],[6.9072,47.54236],[6.91541,47.54606],[6.9287,47.55283],[6.9329,47.5529],[6.92771,47.55813],[6.93495,47.55902],[6.93925,47.55626],[6.93542,47.56082],[6.93348,47.56056],[6.93758,47.56674],[6.93782,47.56913],[6.92708,47.57361],[6.92195,47.57813],[6.91804,47.58104],[6.91146,47.58232],[6.88455,47.58087],[6.88221,47.57465],[6.8733,47.56735],[6.8777,47.56287],[6.88035,47.56295],[6.88337,47.55551]]]},"properties":{"code_territoire":"iris900170000","libelle_territoire":"Bourogne (commune non irisée)"}},
{"type":"Feature","geometry":{"type":"Polygon","coordinates":[[[6.97488,47.58794],[6.96864,47.58591],[6.96708,47.58713],[6.96178,47.58238],[6.96124,47.57706],[6.9543,47.57446],[6.96026,47.56705],[6.96576,47.56447],[6.96684,47.56568],[6.97755,47.57711],[6.98572,47.58074],[6.99323,47.58072],[6.99626,47.58429],[6.98428,47.58911],[6.97488,47.58794]]]},"properties":{"code_territoire":"iris900180000","libelle_territoire":"Brebotte (commune non irisée)"}},
{"type":"Feature","geometry":{"type":"Polygon","coordinates":[[[7.01871,47.58693],[7.01965,47.58864],[7.01578,47.59186],[7.02121,47.59322],[7.01955,47.59593],[7.01203,47.60038],[7.0091,47.59954],[7.00809,47.59724],[6.99808,47.60105],[6.99163,47.59677],[6.97962,47.59536],[6.97755,47.59256],[6.97478,47.59324],[6.97288,47.58853],[6.97488,47.58794],[6.98428,47.58911],[6.99626,47.58429],[6.99323,47.58072],[7.00883,47.58387],[7.0088,47.58189],[7.01439,47.58293],[7.01871,47.58693]]]},"properties":{"code_territoire":"iris900190000","libelle_territoire":"Bretagne (commune non irisée)"}},
{"type":"Feature","geometry":{"type":"Polygon","coordinates":[[[6.78934,47.60469],[6.79835,47.6138],[6.79925,47.62361],[6.79786,47.62534],[6.79241,47.62496],[6.79093,47.62739],[6.78944,47.62564],[6.78052,47.62528],[6.77769,47.61574],[6.7867,47.61052],[6.78934,47.60469]]]},"properties":{"code_territoire":"iris900200000","libelle_territoire":"Buc (commune non irisée)"}},
{"type":"Feature","geometry":{"type":"Polygon","coordinates":[[[6.95647,47.58078],[6.9587,47.58617],[6.95149,47.59036],[6.95174,47.59411],[6.95073,47.59324],[6.94698,47.59024],[6.94217,47.59002],[6.93351,47.58588],[6.92195,47.57813],[6.92708,47.57361],[6.93782,47.56913],[6.93758,47.56674],[6.94028,47.5649],[6.94612,47.56999],[6.94915,47.57015],[6.94838,47.57408],[6.95647,47.58078]]]},"properties":{"code_territoire":"iris900210000","libelle_territoire":"Charmois (commune non irisée)"}},
{"type":"Feature","geometry":{"type":"Polygon","coordinates":[[[6.82173,47.57331],[6.81035,47.56943],[6.80709,47.56307],[6.81678,47.54783],[6.83064,47.54644],[6.83622,47.54816],[6.85586,47.54798],[6.86091,47.55632],[6.85463,47.5667],[6.85007,47.56759],[6.85068,47.57365],[6.8475,47.57252],[6.8456,47.57367],[6.84319,47.56668],[6.82897,47.5692],[6.82173,47.57331]]]},"properties":{"code_territoire":"iris900220000","libelle_territoire":"Châtenois-les-Forges (commune non irisée)"}},
{"type":"Feature","geometry":{"type":"Polygon","coordinates":[[[6.87261,47.69924],[6.86024,47.7148],[6.85562,47.71745],[6.84254,47.71874],[6.84201,47.72485],[6.83713,47.72387],[6.83454,47.73083],[6.82528,47.72804],[6.81301,47.72738],[6.8045,47.7223],[6.80758,47.71959],[6.81363,47.72166],[6.8136,47.71625],[6.81963,47.71253],[6.82088,47.70869],[6.82445,47.70806],[6.82742,47.70972],[6.82909,47.69816],[6.85256,47.69744],[6.86142,47.69987],[6.87261,47.69924]]]},"properties":{"code_territoire":"iris900230000","libelle_territoire":"Chaux (commune non irisée)"}},
{"type":"Feature","geometry":{"type":"Polygon","coordinates":[[[7.05552,47.57678],[7.05383,47.57402],[7.05784,47.56928],[7.07018,47.57407],[7.07185,47.57309],[7.07877,47.5784],[7.08252,47.57858],[7.08646,47.58555],[7.08529,47.59317],[7.07661,47.59053],[7.07286,47.59311],[7.06409,47.59308],[7.06652,47.58906],[7.06555,47.58413],[7.05643,47.5815],[7.05552,47.57678]]]},"properties":{"code_territoire":"iris900240000","libelle_territoire":"Chavanatte (commune non irisée)"}},
{"type":"Feature","geometry":{"type":"Polygon","coordinates":[[[7.08529,47.59317],[7.07488,47.59903],[7.07016,47.59633],[7.07042,47.60073],[7.06681,47.5997],[7.06427,47.6012],[7.05572,47.59823],[7.05191,47.60049],[7.04758,47.59868],[7.04773,47.60083],[7.03978,47.60115],[7.03437,47.59414],[7.02533,47.59272],[7.02482,47.5892],[7.01965,47.58864],[7.01871,47.58693],[7.02419,47.58494],[7.02346,47.58275],[7.03191,47.5824],[7.03312,47.57814],[7.03705,47.58202],[7.04048,47.58253],[7.04159,47.58091],[7.0472,47.58237],[7.04625,47.57951],[7.0488,47.57761],[7.05552,47.57678],[7.05643,47.5815],[7.06555,47.58413],[7.06652,47.58906],[7.06409,47.59308],[7.07286,47.59311],[7.07661,47.59053],[7.08529,47.59317]]]},"properties":{"code_territoire":"iris900250000","libelle_territoire":"Chavannes-les-Grands (commune non irisée)"}},
{"type":"Feature","geometry":{"type":"Polygon","coordinates":[[[6.91077,47.63861],[6.9077,47.63223],[6.90254,47.63193],[6.89943,47.62811],[6.90061,47.62545],[6.89531,47.62476],[6.89414,47.62188],[6.90796,47.61998],[6.91471,47.62169],[6.92084,47.617],[6.93928,47.61802],[6.94961,47.61504],[6.9472,47.62153],[6.95222,47.62554],[6.95182,47.62799],[6.96223,47.6285],[6.96245,47.63365],[6.96638,47.63705],[6.95754,47.63852],[6.93905,47.63528],[6.93552,47.6372],[6.91077,47.63861]]]},"properties":{"code_territoire":"iris900260000","libelle_territoire":"Chèvremont (commune non irisée)"}},
{"type":"Feature","geometry":{"type":"Polygon","coordinates":[[[7.08174,47.50832],[7.05708,47.5046],[7.03665,47.4992],[7.03694,47.49751],[7.04453,47.49845],[7.05243,47.49511],[7.06077,47.49539],[7.07207,47.49238],[7.07485,47.48819],[7.09142,47.49471],[7.09691,47.49517],[7.09474,47.50616],[7.0916,47.50773],[7.08174,47.50832]]]},"properties":{"code_territoire":"iris900270000","libelle_territoire":"Courcelles (commune non irisée)"}},
{"type":"Feature","geometry":{"type":"Polygon","coordinates":[[[7.0916,47.50773],[7.09693,47.51672],[7.0974,47.5263],[7.10227,47.53198],[7.09945,47.53526],[7.09271,47.53328],[7.09277,47.53512],[7.08761,47.53775],[7.08137,47.53595],[7.08341,47.54378],[7.08105,47.54403],[7.07736,47.54506],[7.06683,47.54201],[7.07605,47.53684],[7.07444,47.51222],[7.08174,47.50832],[7.0916,47.50773]]]},"properties":{"code_territoire":"iris900280000","libelle_territoire":"Courtelevant (commune non irisée)"}},
{"type":"Feature","geometry":{"type":"Polygon","coordinates":[[[6.83656,47.65408],[6.83578,47.6594],[6.83468,47.65685],[6.82337,47.65514],[6.81953,47.65218],[6.8102,47.65292],[6.81683,47.64659],[6.82496,47.65149],[6.8326,47.64708],[6.83618,47.64941],[6.83656,47.65408]]]},"properties":{"code_territoire":"iris900290000","libelle_territoire":"Cravanche (commune non irisée)"}},
{"type":"Feature","geometry":{"type":"Polygon","coordinates":[[[6.93251,47.45585],[6.93573,47.44475],[6.93298,47.44062],[6.9403,47.43332],[6.95496,47.43527],[6.95757,47.43381],[6.96371,47.43579],[6.97029,47.44711],[6.9712,47.44909],[6.95875,47.45499],[6.94378,47.4534],[6.93597,47.45576],[6.93251,47.45585]]]},"properties":{"code_territoire":"iris900300000","libelle_territoire":"Croix (commune non irisée)"}},
{"type":"Feature","geometry":{"type":"Polygon","coordinates":[[[7.0066,47.62642],[7.00253,47.63127],[6.99742,47.62987],[6.99247,47.63204],[6.97872,47.62777],[6.98493,47.62216],[6.98785,47.62292],[6.9949,47.62006],[7.00456,47.62091],[7.00501,47.6196],[7.00797,47.61988],[7.0066,47.62642]]]},"properties":{"code_territoire":"iris900310000","libelle_territoire":"Cunelières (commune non irisée)"}},
{"type":"Feature","geometry":{"type":"Polygon","coordinates":[[[6.86297,47.62472],[6.85526,47.62634],[6.85251,47.62034],[6.8472,47.62197],[6.84671,47.61635],[6.83988,47.61117],[6.8393,47.60735],[6.85358,47.61027],[6.86321,47.60887],[6.87322,47.61118],[6.88099,47.61075],[6.88423,47.61131],[6.89009,47.62218],[6.8841,47.62853],[6.87862,47.6297],[6.86297,47.62472]]]},"properties":{"code_territoire":"iris900320000","libelle_territoire":"Danjoutin (commune non irisée)"}},
{"type":"Feature","geometry":{"type":"Polygon","coordinates":[[[7.02493,47.50429],[7.02808,47.51041],[7.02652,47.51169],[7.02398,47.51943],[7.02149,47.51974],[7.02077,47.51839],[7.00992,47.51901],[7.00396,47.51736],[7.00557,47.51109],[7.01352,47.50295],[7.02493,47.50429]]]},"properties":{"code_territoire":"iris900330101","libelle_territoire":"La Voinaie"}},
{"type":"Feature","geometry":{"type":"Polygon","coordinates":[[[7.00372,47.50074],[7.00248,47.5026],[7.00643,47.50541],[6.99589,47.50698],[6.99773,47.50806],[6.99566,47.52096],[6.99212,47.51991],[6.99247,47.5178],[6.96986,47.51108],[6.96992,47.50666],[6.9662,47.506],[6.96385,47.49634],[6.9753,47.49776],[6.97786,47.49739],[6.97722,47.49548],[6.98286,47.4943],[6.98603,47.49334],[7.00372,47.50074]]]},"properties":{"code_territoire":"iris900330102","libelle_territoire":"Les Pasles-Les Vignes"}},
{"type":"Feature","geometry":{"type":"Polygon","coordinates":[[[7.01352,47.50295],[7.00557,47.51109],[7.00396,47.51736],[7.00992,47.51901],[7.02077,47.51839],[7.02149,47.51974],[7.01963,47.52009],[7.00816,47.52042],[6.99853,47.5245],[6.99566,47.52096],[6.99773,47.50806],[6.99589,47.50698],[7.00643,47.50541],[7.00248,47.5026],[7.00372,47.50074],[7.01352,47.50295]]]},"properties":{"code_territoire":"iris900330103","libelle_territoire":"Centre Ville"}},
{"type":"Feature","geometry":{"type":"Polygon","coordinates":[[[6.89414,47.65506],[6.89402,47.65259],[6.8846,47.64808],[6.88614,47.6457],[6.88847,47.64644],[6.89093,47.6464],[6.89114,47.64922],[6.89856,47.65068],[6.90693,47.64814],[6.90953,47.64495],[6.92617,47.65542],[6.92397,47.6601],[6.91024,47.66287],[6.90884,47.66486],[6.89846,47.66322],[6.89404,47.66006],[6.89587,47.65852],[6.89414,47.65506]]]},"properties":{"code_territoire":"iris900340000","libelle_territoire":"Denney (commune non irisée)"}},
{"type":"Feature","geometry":{"type":"Polygon","coordinates":[[[6.85931,47.58907],[6.85452,47.58923],[6.85336,47.58685],[6.8497,47.58632],[6.84898,47.59022],[6.84025,47.59237],[6.83994,47.59493],[6.83668,47.59461],[6.8359,47.59916],[6.83411,47.59855],[6.82658,47.59218],[6.82733,47.58891],[6.82032,47.57546],[6.82122,47.57444],[6.83082,47.57382],[6.83669,47.57534],[6.84073,47.57664],[6.84101,47.57968],[6.84509,47.5821],[6.85914,47.58492],[6.85931,47.58907]]]},"properties":{"code_territoire":"iris900350000","libelle_territoire":"Dorans (commune non irisée)"}},
{"type":"Feature","geometry":{"type":"Polygon","coordinates":[[[6.9267,47.69025],[6.92628,47.68513],[6.92911,47.683],[6.92799,47.66394],[6.93866,47.66679],[6.93668,47.67959],[6.94397,47.68297],[6.94439,47.68969],[6.93781,47.6887],[6.93429,47.69296],[6.9267,47.69025]]]},"properties":{"code_territoire":"iris900360000","libelle_territoire":"Eguenigue (commune non irisée)"}},
{"type":"Feature","geometry":{"type":"Polygon","coordinates":[[[6.86142,47.69987],[6.86334,47.69226],[6.85474,47.69037],[6.8574,47.68499],[6.85378,47.68411],[6.85517,47.68147],[6.86369,47.67811],[6.8852,47.67399],[6.88557,47.68041],[6.88636,47.68474],[6.89093,47.68657],[6.89226,47.69272],[6.89047,47.69448],[6.88251,47.69806],[6.87261,47.69924],[6.86142,47.69987]]]},"properties":{"code_territoire":"iris900370000","libelle_territoire":"Éloie (commune non irisée)"}},
{"type":"Feature","geometry":{"type":"Polygon","coordinates":[[[6.79925,47.62361],[6.80692,47.62273],[6.81186,47.62522],[6.82197,47.62429],[6.82523,47.62579],[6.83493,47.63588],[6.83489,47.63595],[6.83286,47.63895],[6.82792,47.6419],[6.82816,47.64536],[6.82478,47.6472],[6.81683,47.64659],[6.8102,47.65292],[6.80445,47.65341],[6.7984,47.6505],[6.7904,47.64789],[6.79349,47.64778],[6.79894,47.64356],[6.79784,47.64085],[6.80104,47.63605],[6.79093,47.62739],[6.79241,47.62496],[6.79786,47.62534],[6.79925,47.62361]]]},"properties":{"code_territoire":"iris900390000","libelle_territoire":"Essert (commune non irisée)"}},
{"type":"Feature","geometry":{"type":"Polygon","coordinates":[[[6.89718,47.73812],[6.90378,47.73238],[6.9088,47.72041],[6.90603,47.71543],[6.89538,47.71323],[6.8907,47.70042],[6.91169,47.70142],[6.92654,47.7072],[6.92547,47.70966],[6.94455,47.72176],[6.93892,47.73195],[6.93004,47.73717],[6.92216,47.74709],[6.9105,47.74596],[6.88961,47.74939],[6.89718,47.73812]]]},"properties":{"code_territoire":"iris900410000","libelle_territoire":"Étueffont (commune non irisée)"}},
{"type":"Feature","geometry":{"type":"Polygon","coordinates":[[[6.78017,47.68977],[6.78174,47.68417],[6.77613,47.66808],[6.78189,47.66228],[6.77955,47.65667],[6.78675,47.65321],[6.7904,47.64789],[6.7984,47.6505],[6.79173,47.65564],[6.78768,47.655],[6.78766,47.65752],[6.79973,47.66027],[6.80744,47.66675],[6.82244,47.66767],[6.83072,47.67131],[6.82958,47.67362],[6.82273,47.67762],[6.81027,47.68041],[6.79736,47.69064],[6.78017,47.68977]]]},"properties":{"code_territoire":"iris900420000","libelle_territoire":"Évette-Salbert (commune non irisée)"}},
{"type":"Feature","geometry":{"type":"Polygon","coordinates":[[[7.02795,47.5418],[7.02214,47.5333],[7.02514,47.52771],[7.01963,47.52009],[7.02149,47.51974],[7.02398,47.51943],[7.02652,47.51169],[7.04529,47.51418],[7.04701,47.51938],[7.05324,47.52303],[7.04846,47.53634],[7.05187,47.5419],[7.04778,47.54246],[7.04342,47.54624],[7.03959,47.54626],[7.03891,47.54426],[7.02795,47.5418]]]},"properties":{"code_territoire":"iris900430000","libelle_territoire":"Faverois (commune non irisée)"}},
{"type":"Feature","geometry":{"type":"Polygon","coordinates":[[[6.98422,47.71636],[6.96633,47.7111],[6.95725,47.71348],[6.96074,47.70818],[6.9752,47.69975],[6.97822,47.6943],[7.00076,47.70469],[6.99735,47.70884],[6.99286,47.70803],[6.99193,47.71442],[6.98782,47.71797],[6.98422,47.71636]]]},"properties":{"code_territoire":"iris900440000","libelle_territoire":"Felon (commune non irisée)"}},
{"type":"Feature","geometry":{"type":"Polygon","coordinates":[[[6.95803,47.51557],[6.95186,47.51654],[6.945,47.51334],[6.9497,47.50851],[6.94548,47.5051],[6.94458,47.49854],[6.94912,47.4857],[6.95241,47.48508],[6.95669,47.49394],[6.96041,47.49359],[6.96043,47.49629],[6.96385,47.49634],[6.9662,47.506],[6.96992,47.50666],[6.96986,47.51108],[6.95803,47.51557]]]},"properties":{"code_territoire":"iris900450000","libelle_territoire":"Fêche-l'Église (commune non irisée)"}},
{"type":"Feature","geometry":{"type":"Polygon","coordinates":[[[7.03959,47.54626],[7.04342,47.54624],[7.04778,47.54246],[7.05187,47.5419],[7.04846,47.53634],[7.05324,47.52303],[7.04701,47.51938],[7.04529,47.51418],[7.02652,47.51169],[7.02808,47.51041],[7.02493,47.50429],[7.02765,47.50132],[7.03665,47.4992],[7.05708,47.5046],[7.08174,47.50832],[7.07444,47.51222],[7.07605,47.53684],[7.06683,47.54201],[7.06339,47.5438],[7.05731,47.55581],[7.04937,47.55981],[7.05121,47.56084],[7.04958,47.56313],[7.05414,47.56371],[7.05784,47.56928],[7.05383,47.57402],[7.05552,47.57678],[7.0488,47.57761],[7.04625,47.57951],[7.0472,47.58237],[7.04159,47.58091],[7.04048,47.58253],[7.03705,47.58202],[7.03312,47.57814],[7.02165,47.56398],[7.02158,47.56268],[7.02811,47.56187],[7.02795,47.55898],[7.03325,47.55618],[7.03353,47.55035],[7.03959,47.54626]]]},"properties":{"code_territoire":"iris900460000","libelle_territoire":"Florimont (commune non irisée)"}},
{"type":"Feature","geometry":{"type":"Polygon","coordinates":[[[7.01895,47.65092],[7.02254,47.65554],[7.02292,47.66269],[7.01903,47.66534],[7.01352,47.66376],[7.00964,47.66802],[7.00925,47.66884],[6.99713,47.6697],[6.97881,47.66725],[6.97185,47.66855],[6.97126,47.65821],[6.97117,47.65525],[6.99112,47.65411],[6.99283,47.65112],[7.00574,47.65099],[7.00778,47.6492],[7.00673,47.6434],[7.01661,47.64538],[7.01895,47.65092]]]},"properties":{"code_territoire":"iris900470000","libelle_territoire":"Fontaine (commune non irisée)"}},
{"type":"Feature","geometry":{"type":"Polygon","coordinates":[[[6.96337,47.61609],[6.96165,47.61775],[6.96556,47.62098],[6.96317,47.62473],[6.9644,47.62779],[6.96223,47.6285],[6.95182,47.62799],[6.95222,47.62554],[6.9472,47.62153],[6.94961,47.61504],[6.94994,47.61276],[6.96337,47.61609]]]},"properties":{"code_territoire":"iris900480000","libelle_territoire":"Fontenelle (commune non irisée)"}},
{"type":"Feature","geometry":{"type":"Polygon","coordinates":[[[7.0066,47.62642],[7.00593,47.62892],[7.01092,47.63045],[7.01433,47.62584],[7.01685,47.62708],[7.01149,47.63338],[7.01444,47.63269],[7.01351,47.6348],[7.01598,47.63591],[7.01233,47.63932],[7.01928,47.64126],[7.01661,47.64538],[7.00673,47.6434],[7.00778,47.6492],[7.00574,47.65099],[6.99283,47.65112],[6.99476,47.64607],[6.99317,47.64171],[6.97244,47.63679],[6.97316,47.63059],[6.97872,47.62777],[6.99247,47.63204],[6.99742,47.62987],[7.00253,47.63127],[7.0066,47.62642]]]},"properties":{"code_territoire":"iris900490000","libelle_territoire":"Foussemagne (commune non irisée)"}},
{"type":"Feature","geometry":{"type":"Polygon","coordinates":[[[6.97244,47.63679],[6.99317,47.64171],[6.99476,47.64607],[6.99283,47.65112],[6.99112,47.65411],[6.97117,47.65525],[6.97015,47.65479],[6.97396,47.64244],[6.97101,47.63675],[6.97244,47.63679]]]},"properties":{"code_territoire":"iris900500000","libelle_territoire":"Frais (commune non irisée)"}},
{"type":"Feature","geometry":{"type":"Polygon","coordinates":[[[6.93758,47.56674],[6.93348,47.56056],[6.93542,47.56082],[6.93925,47.55626],[6.94137,47.55526],[6.94722,47.55692],[6.95471,47.5544],[6.96471,47.55737],[6.98528,47.55949],[6.9808,47.56375],[6.97587,47.56291],[6.96684,47.56568],[6.96576,47.56447],[6.96026,47.56705],[6.9543,47.57446],[6.96124,47.57706],[6.96178,47.58238],[6.95981,47.57958],[6.95647,47.58078],[6.94838,47.57408],[6.94915,47.57015],[6.94612,47.56999],[6.94028,47.5649],[6.93758,47.56674]]]},"properties":{"code_territoire":"iris900510000","libelle_territoire":"Froidefontaine (commune non irisée)"}},
{"type":"Feature","geometry":{"type":"Polygon","coordinates":[[[6.83454,47.73083],[6.83404,47.73288],[6.84,47.73543],[6.83452,47.7575],[6.82815,47.75486],[6.82476,47.75032],[6.81581,47.74944],[6.81532,47.74684],[6.79958,47.74862],[6.80464,47.7445],[6.80483,47.7415],[6.81301,47.72738],[6.82528,47.72804],[6.83454,47.73083]]]},"properties":{"code_territoire":"iris900520000","libelle_territoire":"Giromagny (commune non irisée)"}},
{"type":"Feature","geometry":{"type":"Polygon","coordinates":[[[6.945,47.51334],[6.95186,47.51654],[6.95803,47.51557],[6.96089,47.51843],[6.96533,47.51776],[6.97276,47.52203],[6.98405,47.5243],[6.98899,47.53326],[7.01319,47.54442],[7.01009,47.54641],[6.99715,47.54711],[6.99245,47.54965],[6.99291,47.55551],[6.99753,47.56002],[6.99724,47.56233],[6.98528,47.55949],[6.96471,47.55737],[6.95471,47.5544],[6.95588,47.55192],[6.9513,47.54645],[6.94806,47.53625],[6.94148,47.53203],[6.94424,47.52308],[6.939,47.52155],[6.94058,47.5191],[6.93757,47.51742],[6.945,47.51334]]]},"properties":{"code_territoire":"iris900530000","libelle_territoire":"Grandvillars (commune non irisée)"}},
{"type":"Feature","geometry":{"type":"Polygon","coordinates":[[[6.88828,47.75078],[6.8861,47.74708],[6.88838,47.74318],[6.88633,47.73495],[6.87968,47.73096],[6.86512,47.72856],[6.86463,47.72079],[6.86024,47.7148],[6.87261,47.69924],[6.88251,47.69806],[6.89047,47.69448],[6.8907,47.70042],[6.89538,47.71323],[6.89178,47.72332],[6.89718,47.73812],[6.88961,47.74939],[6.88828,47.75078]]]},"properties":{"code_territoire":"iris900540000","libelle_territoire":"Grosmagny (commune non irisée)"}},
{"type":"Feature","geometry":{"type":"Polygon","coordinates":[[[7.00201,47.56419],[7.00518,47.56787],[7.0088,47.58189],[7.00883,47.58387],[6.99323,47.58072],[6.98572,47.58074],[6.9871,47.57117],[6.98016,47.56652],[6.9808,47.56375],[6.98528,47.55949],[6.99724,47.56233],[6.99753,47.56002],[7.00082,47.56076],[7.00201,47.56419]]]},"properties":{"code_territoire":"iris900550000","libelle_territoire":"Grosne (commune non irisée)"}},
{"type":"Feature","geometry":{"type":"Polygon","coordinates":[[[7.01319,47.54442],[6.98899,47.53326],[6.99085,47.53228],[6.98816,47.53035],[6.9903,47.52907],[6.99419,47.5314],[6.99115,47.5283],[6.99727,47.52771],[6.99853,47.5245],[7.00816,47.52042],[7.01963,47.52009],[7.02514,47.52771],[7.02214,47.5333],[7.02795,47.5418],[7.0259,47.54499],[7.01319,47.54442]]]},"properties":{"code_territoire":"iris900560000","libelle_territoire":"Joncherey (commune non irisée)"}},
{"type":"Feature","geometry":{"type":"Polygon","coordinates":[[[6.79736,47.69064],[6.80977,47.69382],[6.81252,47.69169],[6.82909,47.69816],[6.82742,47.70972],[6.82445,47.70806],[6.82088,47.70869],[6.81963,47.71253],[6.8136,47.71625],[6.81363,47.72166],[6.80758,47.71959],[6.8045,47.7223],[6.79699,47.71696],[6.77913,47.71663],[6.77158,47.71257],[6.77053,47.70162],[6.77815,47.69777],[6.78017,47.68977],[6.79736,47.69064]]]},"properties":{"code_territoire":"iris900570000","libelle_territoire":"Lachapelle-sous-Chaux (commune non irisée)"}},
{"type":"Feature","geometry":{"type":"Polygon","coordinates":[[[7.02755,47.70532],[7.03781,47.71816],[7.03587,47.72136],[7.03778,47.72162],[7.03249,47.72611],[6.99193,47.71442],[6.99286,47.70803],[6.99735,47.70884],[7.00076,47.70469],[7.02755,47.70532]]]},"properties":{"code_territoire":"iris900580000","libelle_territoire":"Lachapelle-sous-Rougemont (commune non irisée)"}},
{"type":"Feature","geometry":{"type":"Polygon","coordinates":[[[6.97126,47.65821],[6.97185,47.66855],[6.97217,47.66982],[6.96238,47.66792],[6.95374,47.66867],[6.94085,47.6669],[6.94154,47.6617],[6.94864,47.66276],[6.94914,47.66618],[6.9523,47.66818],[6.95667,47.66726],[6.95766,47.66224],[6.95224,47.6624],[6.9575,47.65665],[6.97126,47.65821]]]},"properties":{"code_territoire":"iris900590000","libelle_territoire":"Lacollonge (commune non irisée)"}},
{"type":"Feature","geometry":{"type":"Polygon","coordinates":[[[6.96758,47.69041],[6.97679,47.67824],[6.98408,47.67882],[6.98577,47.68437],[6.98217,47.68513],[6.98352,47.68602],[6.97613,47.68969],[6.97415,47.68835],[6.96824,47.69054],[6.96758,47.69041]]]},"properties":{"code_territoire":"iris900600000","libelle_territoire":"Lagrange (commune non irisée)"}},
{"type":"Feature","geometry":{"type":"Polygon","coordinates":[[[6.88961,47.74939],[6.9105,47.74596],[6.92216,47.74709],[6.92115,47.75808],[6.92544,47.7661],[6.92275,47.77188],[6.91121,47.77808],[6.9023,47.77663],[6.90543,47.76679],[6.898,47.76537],[6.88966,47.75483],[6.88828,47.75078],[6.88961,47.74939]]]},"properties":{"code_territoire":"iris900610000","libelle_territoire":"Lamadeleine-Val-des-Anges (commune non irisée)"}},
{"type":"Feature","geometry":{"type":"Polygon","coordinates":[[[6.97217,47.66982],[6.97185,47.66855],[6.97881,47.66725],[6.99713,47.6697],[7.00925,47.66884],[7.02047,47.67347],[7.01792,47.67598],[7.0032,47.67428],[7.00934,47.68756],[6.99886,47.68912],[6.98352,47.68602],[6.98217,47.68513],[6.98577,47.68437],[6.98408,47.67882],[6.97679,47.67824],[6.9737,47.67369],[6.97217,47.66982]]]},"properties":{"code_territoire":"iris900620000","libelle_territoire":"Larivière (commune non irisée)"}},
{"type":"Feature","geometry":{"type":"Polygon","coordinates":[[[6.95241,47.48508],[6.96994,47.47935],[6.98142,47.47314],[6.9883,47.4731],[6.98644,47.47633],[6.98865,47.4869],[6.98286,47.4943],[6.97722,47.49548],[6.97786,47.49739],[6.9753,47.49776],[6.96385,47.49634],[6.96043,47.49629],[6.96041,47.49359],[6.95669,47.49394],[6.95241,47.48508]]]},"properties":{"code_territoire":"iris900630000","libelle_territoire":"Lebetain (commune non irisée)"}},
{"type":"Feature","geometry":{"type":"Polygon","coordinates":[[[7.13299,47.53952],[7.12294,47.54373],[7.12058,47.54715],[7.11092,47.54879],[7.10571,47.5516],[7.09364,47.54792],[7.09244,47.54926],[7.08917,47.54815],[7.08594,47.55056],[7.08105,47.54403],[7.08341,47.54378],[7.08137,47.53595],[7.08761,47.53775],[7.09277,47.53512],[7.09271,47.53328],[7.09945,47.53526],[7.10227,47.53198],[7.12244,47.5341],[7.13299,47.53952]]]},"properties":{"code_territoire":"iris900640000","libelle_territoire":"Lepuix-Neuf (commune non irisée)"}},
{"type":"Feature","geometry":{"type":"Polygon","coordinates":[[[6.86538,47.78489],[6.86234,47.7859],[6.86005,47.79435],[6.85451,47.79589],[6.84939,47.80083],[6.8482,47.80427],[6.85056,47.80681],[6.84746,47.81077],[6.84268,47.81218],[6.84101,47.81898],[6.84588,47.82289],[6.84016,47.82484],[6.83397,47.8186],[6.82384,47.81426],[6.82494,47.80908],[6.8117,47.79772],[6.81132,47.79429],[6.7961,47.78501],[6.7847,47.78144],[6.77458,47.76673],[6.78131,47.76517],[6.79146,47.7546],[6.78969,47.75251],[6.79958,47.74862],[6.81532,47.74684],[6.81581,47.74944],[6.82476,47.75032],[6.82815,47.75486],[6.83452,47.7575],[6.84325,47.76964],[6.85558,47.77318],[6.86538,47.78489]]]},"properties":{"code_territoire":"iris900650000","libelle_territoire":"Lepuix (commune non irisée)"}},
{"type":"Feature","geometry":{"type":"Polygon","coordinates":[[[7.02097,47.7346],[7.01583,47.7438],[7.01289,47.74145],[6.99901,47.74595],[6.98234,47.73648],[6.9765,47.72989],[6.96808,47.72701],[6.96988,47.72334],[6.98169,47.7189],[7.0056,47.72641],[7.02097,47.7346]]]},"properties":{"code_territoire":"iris900660000","libelle_territoire":"Leval (commune non irisée)"}},
{"type":"Feature","geometry":{"type":"Polygon","coordinates":[[[6.95488,47.69308],[6.93429,47.69296],[6.93781,47.6887],[6.94439,47.68969],[6.94397,47.68297],[6.93668,47.67959],[6.93866,47.66679],[6.94085,47.6669],[6.95374,47.66867],[6.96238,47.66792],[6.97217,47.66982],[6.9737,47.67369],[6.96315,47.67053],[6.95768,47.68909],[6.95488,47.69308]]]},"properties":{"code_territoire":"iris900670000","libelle_territoire":"Menoncourt (commune non irisée)"}},
{"type":"Feature","geometry":{"type":"Polygon","coordinates":[[[6.94418,47.59598],[6.93848,47.59408],[6.92048,47.59663],[6.92439,47.59819],[6.91209,47.59961],[6.90264,47.60416],[6.89707,47.604],[6.89613,47.60681],[6.89205,47.60662],[6.89125,47.61087],[6.88099,47.61055],[6.88691,47.60242],[6.88457,47.59803],[6.88,47.59561],[6.88171,47.59187],[6.87651,47.59128],[6.87941,47.58581],[6.87711,47.58485],[6.88455,47.58087],[6.91146,47.58232],[6.91804,47.58104],[6.92195,47.57813],[6.93351,47.58588],[6.94217,47.59002],[6.94698,47.59024],[6.95073,47.59324],[6.94447,47.59443],[6.94418,47.59598]]]},"properties":{"code_territoire":"iris900680000","libelle_territoire":"Meroux-Moval (commune non irisée)"}},
{"type":"Feature","geometry":{"type":"Polygon","coordinates":[[[6.9072,47.54236],[6.91645,47.5307],[6.90744,47.52593],[6.91681,47.5247],[6.92081,47.52014],[6.93757,47.51742],[6.94058,47.5191],[6.939,47.52155],[6.9358,47.52052],[6.93279,47.52409],[6.93477,47.5327],[6.93155,47.53341],[6.93486,47.53508],[6.92834,47.5346],[6.92628,47.54455],[6.92273,47.54325],[6.9204,47.54551],[6.91541,47.54606],[6.9072,47.54236]]]},"properties":{"code_territoire":"iris900690000","libelle_territoire":"Méziré (commune non irisée)"}},
{"type":"Feature","geometry":{"type":"Polygon","coordinates":[[[6.93251,47.45585],[6.93597,47.45576],[6.93815,47.45918],[6.93523,47.46757],[6.93848,47.47313],[6.9157,47.47823],[6.90744,47.47293],[6.91388,47.46925],[6.92352,47.46702],[6.922,47.46249],[6.93251,47.45585]]]},"properties":{"code_territoire":"iris900700000","libelle_territoire":"Montbouton (commune non irisée)"}},
{"type":"Feature","geometry":{"type":"Polygon","coordinates":[[[6.97776,47.59641],[6.97962,47.59536],[6.99163,47.59677],[6.99808,47.60105],[7.00809,47.59724],[7.0091,47.59954],[7.00565,47.6021],[7.0104,47.60495],[7.00755,47.60642],[7.00887,47.60949],[7.00501,47.6196],[7.00456,47.62091],[6.9949,47.62006],[6.98785,47.62292],[6.98493,47.62216],[6.98849,47.61725],[6.98302,47.61338],[6.98541,47.60888],[6.97886,47.60661],[6.9816,47.59933],[6.97776,47.59641]]]},"properties":{"code_territoire":"iris900710000","libelle_territoire":"Montreux-Château (commune non irisée)"}},
{"type":"Feature","geometry":{"type":"Polygon","coordinates":[[[6.939,47.52155],[6.94424,47.52308],[6.94148,47.53203],[6.94806,47.53625],[6.9513,47.54645],[6.95588,47.55192],[6.95471,47.5544],[6.94722,47.55692],[6.94137,47.55526],[6.93925,47.55626],[6.93495,47.55902],[6.92771,47.55813],[6.9329,47.5529],[6.9287,47.55283],[6.91541,47.54606],[6.9204,47.54551],[6.92273,47.54325],[6.92628,47.54455],[6.92834,47.5346],[6.93486,47.53508],[6.93155,47.53341],[6.93477,47.5327],[6.93279,47.52409],[6.9358,47.52052],[6.939,47.52155]]]},"properties":{"code_territoire":"iris900720000","libelle_territoire":"Morvillars (commune non irisée)"}},
{"type":"Feature","geometry":{"type":"Polygon","coordinates":[[[6.95073,47.59324],[6.95174,47.59411],[6.95143,47.59611],[6.94765,47.59552],[6.94563,47.60114],[6.94896,47.60281],[6.9521,47.5985],[6.9632,47.60052],[6.97776,47.59641],[6.9816,47.59933],[6.97886,47.60661],[6.97471,47.61018],[6.96573,47.61291],[6.96337,47.61609],[6.94994,47.61276],[6.94898,47.60919],[6.94291,47.60573],[6.94617,47.60385],[6.94418,47.59598],[6.94447,47.59443],[6.95073,47.59324]]]},"properties":{"code_territoire":"iris900740000","libelle_territoire":"Novillard (commune non irisée)"}},
{"type":"Feature","geometry":{"type":"Polygon","coordinates":[[[6.89587,47.65852],[6.88849,47.66446],[6.88909,47.66721],[6.8819,47.66586],[6.8852,47.67399],[6.86369,47.67811],[6.8653,47.66794],[6.85416,47.66038],[6.85032,47.66116],[6.8621,47.65455],[6.87546,47.65207],[6.87644,47.64975],[6.88118,47.64989],[6.89414,47.65506],[6.89587,47.65852]]]},"properties":{"code_territoire":"iris900750000","libelle_territoire":"Offemont (commune non irisée)"}},
{"type":"Feature","geometry":{"type":"Polygon","coordinates":[[[6.88847,47.64644],[6.88893,47.64267],[6.87974,47.63833],[6.8812,47.63607],[6.87379,47.63095],[6.87862,47.6297],[6.8841,47.62853],[6.89009,47.62218],[6.89414,47.62188],[6.89531,47.62476],[6.90061,47.62545],[6.89943,47.62811],[6.90254,47.63193],[6.9077,47.63223],[6.91077,47.63861],[6.90953,47.64495],[6.90693,47.64814],[6.89856,47.65068],[6.89114,47.64922],[6.89093,47.6464],[6.88847,47.64644]]]},"properties":{"code_territoire":"iris900760000","libelle_territoire":"Pérouse (commune non irisée)"}},
{"type":"Feature","geometry":{"type":"Polygon","coordinates":[[[6.96223,47.6285],[6.9644,47.62779],[6.96317,47.62473],[6.96556,47.62098],[6.96165,47.61775],[6.96337,47.61609],[6.96573,47.61291],[6.97471,47.61018],[6.97886,47.60661],[6.98541,47.60888],[6.98302,47.61338],[6.98849,47.61725],[6.98493,47.62216],[6.97872,47.62777],[6.97316,47.63059],[6.97244,47.63679],[6.97101,47.63675],[6.96638,47.63705],[6.96245,47.63365],[6.96223,47.6285]]]},"properties":{"code_territoire":"iris900770000","libelle_territoire":"Petit-Croix (commune non irisée)"}},
{"type":"Feature","geometry":{"type":"Polygon","coordinates":[[[6.98169,47.7189],[6.98422,47.71636],[6.98782,47.71797],[6.99193,47.71442],[7.03249,47.72611],[7.02097,47.7346],[7.0056,47.72641],[6.98169,47.7189]]]},"properties":{"code_territoire":"iris900780000","libelle_territoire":"Petitefontaine (commune non irisée)"}},
{"type":"Feature","geometry":{"type":"Polygon","coordinates":[[[6.89538,47.71323],[6.90603,47.71543],[6.9088,47.72041],[6.90378,47.73238],[6.89718,47.73812],[6.89178,47.72332],[6.89538,47.71323]]]},"properties":{"code_territoire":"iris900790000","libelle_territoire":"Petitmagny (commune non irisée)"}},
{"type":"Feature","geometry":{"type":"Polygon","coordinates":[[[6.93866,47.66679],[6.92799,47.66394],[6.92397,47.6601],[6.92617,47.65542],[6.93515,47.65525],[6.93974,47.65051],[6.94873,47.65406],[6.97015,47.65479],[6.97117,47.65525],[6.97126,47.65821],[6.9575,47.65665],[6.95224,47.6624],[6.95766,47.66224],[6.95667,47.66726],[6.9523,47.66818],[6.94914,47.66618],[6.94864,47.66276],[6.94154,47.6617],[6.94085,47.6669],[6.93866,47.66679]]]},"properties":{"code_territoire":"iris900800000","libelle_territoire":"Phaffans (commune non irisée)"}},
{"type":"Feature","geometry":{"type":"Polygon","coordinates":[[[7.13299,47.53952],[7.12244,47.5341],[7.10227,47.53198],[7.0974,47.5263],[7.09693,47.51672],[7.0916,47.50773],[7.09474,47.50616],[7.09691,47.49517],[7.11253,47.49511],[7.128,47.50388],[7.13026,47.50295],[7.13505,47.50583],[7.14336,47.52459],[7.13835,47.52772],[7.13611,47.53716],[7.13299,47.53952]]]},"properties":{"code_territoire":"iris900810000","libelle_territoire":"Réchésy (commune non irisée)"}},
{"type":"Feature","geometry":{"type":"Polygon","coordinates":[[[6.97776,47.59641],[6.9632,47.60052],[6.9521,47.5985],[6.94896,47.60281],[6.94563,47.60114],[6.94765,47.59552],[6.95143,47.59611],[6.95174,47.59411],[6.95149,47.59036],[6.9587,47.58617],[6.95647,47.58078],[6.95981,47.57958],[6.96178,47.58238],[6.96708,47.58713],[6.96864,47.58591],[6.97488,47.58794],[6.97288,47.58853],[6.97478,47.59324],[6.97755,47.59256],[6.97962,47.59536],[6.97776,47.59641]]]},"properties":{"code_territoire":"iris900820000","libelle_territoire":"Autrechêne (commune non irisée)"}},
{"type":"Feature","geometry":{"type":"Polygon","coordinates":[[[6.9808,47.56375],[6.98016,47.56652],[6.9871,47.57117],[6.98572,47.58074],[6.97755,47.57711],[6.96684,47.56568],[6.97587,47.56291],[6.9808,47.56375]]]},"properties":{"code_territoire":"iris900830000","libelle_territoire":"Recouvrance (commune non irisée)"}},
{"type":"Feature","geometry":{"type":"Polygon","coordinates":[[[7.03745,47.67537],[7.00964,47.66802],[7.01352,47.66376],[7.01903,47.66534],[7.02292,47.66269],[7.02254,47.65554],[7.01895,47.65092],[7.03027,47.64925],[7.0393,47.65051],[7.034,47.66125],[7.04632,47.67154],[7.03745,47.67537]]]},"properties":{"code_territoire":"iris900840000","libelle_territoire":"Reppe (commune non irisée)"}},
{"type":"Feature","geometry":{"type":"Polygon","coordinates":[[[6.86538,47.78489],[6.85558,47.77318],[6.86234,47.76228],[6.85782,47.7549],[6.87595,47.75605],[6.88966,47.75483],[6.898,47.76537],[6.90543,47.76679],[6.9023,47.77663],[6.893,47.77757],[6.88181,47.7821],[6.872,47.78177],[6.86538,47.78489]]]},"properties":{"code_territoire":"iris900850000","libelle_territoire":"Riervescemont (commune non irisée)"}},
{"type":"Feature","geometry":{"type":"Polygon","coordinates":[[[6.98422,47.71636],[6.98169,47.7189],[6.96988,47.72334],[6.96808,47.72701],[6.9473,47.72196],[6.95157,47.72278],[6.95394,47.71734],[6.95589,47.71791],[6.95725,47.71348],[6.96633,47.7111],[6.98422,47.71636]]]},"properties":{"code_territoire":"iris900860000","libelle_territoire":"Romagny-sous-Rougemont (commune non irisée)"}},
{"type":"Feature","geometry":{"type":"Polygon","coordinates":[[[6.92799,47.66394],[6.92911,47.683],[6.92628,47.68513],[6.9267,47.69025],[6.91861,47.68818],[6.91393,47.69063],[6.90474,47.69073],[6.90185,47.69447],[6.89226,47.69272],[6.89093,47.68657],[6.88636,47.68474],[6.88557,47.68041],[6.8983,47.67534],[6.89961,47.6719],[6.90799,47.67099],[6.9106,47.66913],[6.90745,47.66653],[6.90884,47.66486],[6.91024,47.66287],[6.92397,47.6601],[6.92799,47.66394]]]},"properties":{"code_territoire":"iris900870000","libelle_territoire":"Roppe (commune non irisée)"}},
{"type":"Feature","geometry":{"type":"Polygon","coordinates":[[[6.86024,47.7148],[6.86463,47.72079],[6.86512,47.72856],[6.87968,47.73096],[6.88633,47.73495],[6.88838,47.74318],[6.8861,47.74708],[6.88828,47.75078],[6.88495,47.7522],[6.86643,47.75033],[6.86107,47.74804],[6.85583,47.7381],[6.85146,47.73817],[6.84611,47.73454],[6.84,47.73543],[6.83404,47.73288],[6.83454,47.73083],[6.83713,47.72387],[6.84201,47.72485],[6.84254,47.71874],[6.85562,47.71745],[6.86024,47.7148]]]},"properties":{"code_territoire":"iris900880000","libelle_territoire":"Rougegoutte (commune non irisée)"}},
{"type":"Feature","geometry":{"type":"Polygon","coordinates":[[[6.92216,47.74709],[6.93004,47.73717],[6.93892,47.73195],[6.94455,47.72176],[6.9473,47.72196],[6.96808,47.72701],[6.9765,47.72989],[6.98234,47.73648],[6.99901,47.74595],[6.98167,47.75131],[6.97217,47.75158],[6.97062,47.75419],[6.95444,47.76117],[6.95211,47.76442],[6.94347,47.76656],[6.94017,47.77161],[6.92721,47.76949],[6.92275,47.77188],[6.92544,47.7661],[6.92115,47.75808],[6.92216,47.74709]]]},"properties":{"code_territoire":"iris900890000","libelle_territoire":"Rougemont-le-Château (commune non irisée)"}},
{"type":"Feature","geometry":{"type":"Polygon","coordinates":[[[6.94267,47.48492],[6.93848,47.47313],[6.93523,47.46757],[6.93815,47.45918],[6.93597,47.45576],[6.94378,47.4534],[6.95875,47.45499],[6.9712,47.44909],[6.97668,47.45667],[6.99017,47.46322],[6.99171,47.4664],[6.99299,47.47113],[6.9883,47.4731],[6.98142,47.47314],[6.96994,47.47935],[6.95241,47.48508],[6.94912,47.4857],[6.94649,47.4876],[6.94327,47.48719],[6.94267,47.48492]]]},"properties":{"code_territoire":"iris900900000","libelle_territoire":"Saint-Dizier-l'Évêque (commune non irisée)"}},
{"type":"Feature","geometry":{"type":"Polygon","coordinates":[[[6.96758,47.69041],[6.96824,47.69054],[6.97822,47.6943],[6.9752,47.69975],[6.96074,47.70818],[6.95725,47.71348],[6.95589,47.71791],[6.95394,47.71734],[6.95248,47.7169],[6.94912,47.7091],[6.9524,47.70429],[6.95069,47.69676],[6.95488,47.69308],[6.95768,47.68909],[6.96758,47.69041]]]},"properties":{"code_territoire":"iris900910000","libelle_territoire":"Saint-Germain-le-Châtelet (commune non irisée)"}},
{"type":"Feature","geometry":{"type":"Polygon","coordinates":[[[6.79736,47.69064],[6.81027,47.68041],[6.82273,47.67762],[6.82958,47.67362],[6.83271,47.67637],[6.84737,47.67906],[6.85142,47.68497],[6.85378,47.68411],[6.8574,47.68499],[6.85474,47.69037],[6.86334,47.69226],[6.86142,47.69987],[6.85256,47.69744],[6.82909,47.69816],[6.81252,47.69169],[6.80977,47.69382],[6.79736,47.69064]]]},"properties":{"code_territoire":"iris900930000","libelle_territoire":"Sermamagny (commune non irisée)"}},
{"type":"Feature","geometry":{"type":"Polygon","coordinates":[[[6.85931,47.58907],[6.85914,47.58492],[6.85888,47.58231],[6.86141,47.58237],[6.87204,47.58151],[6.87711,47.58485],[6.87941,47.58581],[6.87651,47.59128],[6.88171,47.59187],[6.88,47.59561],[6.88457,47.59803],[6.86579,47.59491],[6.86653,47.59269],[6.86302,47.59223],[6.85998,47.5922],[6.85931,47.58907]]]},"properties":{"code_territoire":"iris900940000","libelle_territoire":"Sevenans (commune non irisée)"}},
{"type":"Feature","geometry":{"type":"Polygon","coordinates":[[[7.10571,47.5516],[7.10824,47.55214],[7.10841,47.56187],[7.10544,47.56912],[7.0995,47.57284],[7.09414,47.5735],[7.08646,47.58555],[7.08252,47.57858],[7.07877,47.5784],[7.07185,47.57309],[7.07018,47.57407],[7.05784,47.56928],[7.05414,47.56371],[7.04958,47.56313],[7.05121,47.56084],[7.04937,47.55981],[7.05731,47.55581],[7.06339,47.5438],[7.06683,47.54201],[7.07736,47.54506],[7.08105,47.54403],[7.08594,47.55056],[7.08917,47.54815],[7.09244,47.54926],[7.09364,47.54792],[7.10571,47.5516]]]},"properties":{"code_territoire":"iris900950000","libelle_territoire":"Suarce (commune non irisée)"}},
{"type":"Feature","geometry":{"type":"Polygon","coordinates":[[[6.96986,47.51108],[6.99247,47.5178],[6.99212,47.51991],[6.99566,47.52096],[6.99853,47.5245],[6.99727,47.52771],[6.99115,47.5283],[6.99419,47.5314],[6.9903,47.52907],[6.98816,47.53035],[6.99085,47.53228],[6.98899,47.53326],[6.98405,47.5243],[6.97276,47.52203],[6.96533,47.51776],[6.96089,47.51843],[6.95803,47.51557],[6.96986,47.51108]]]},"properties":{"code_territoire":"iris900960000","libelle_territoire":"Thiancourt (commune non irisée)"}},
{"type":"Feature","geometry":{"type":"Polygon","coordinates":[[[6.85586,47.54798],[6.87323,47.55098],[6.88337,47.55551],[6.88035,47.56295],[6.8777,47.56287],[6.8733,47.56735],[6.88221,47.57465],[6.88455,47.58087],[6.87711,47.58485],[6.87204,47.58151],[6.86141,47.58237],[6.85664,47.57511],[6.85777,47.56802],[6.85463,47.5667],[6.86091,47.55632],[6.85586,47.54798]]]},"properties":{"code_territoire":"iris900970000","libelle_territoire":"Trévenans (commune non irisée)"}},
{"type":"Feature","geometry":{"type":"Polygon","coordinates":[[[6.80082,47.6002],[6.81308,47.6042],[6.81592,47.60863],[6.81319,47.6154],[6.81546,47.61662],[6.80692,47.62273],[6.79925,47.62361],[6.79835,47.6138],[6.78934,47.60469],[6.79329,47.59927],[6.80082,47.6002]]]},"properties":{"code_territoire":"iris900980000","libelle_territoire":"Urcerey (commune non irisée)"}},
{"type":"Feature","geometry":{"type":"Polygon","coordinates":[[[6.85378,47.68411],[6.85142,47.68497],[6.84737,47.67906],[6.83271,47.67637],[6.82958,47.67362],[6.83072,47.67131],[6.83565,47.66903],[6.83587,47.66139],[6.83284,47.66081],[6.83593,47.66059],[6.84988,47.66121],[6.85032,47.66116],[6.85416,47.66038],[6.8653,47.66794],[6.86369,47.67811],[6.85517,47.68147],[6.85378,47.68411]]]},"properties":{"code_territoire":"iris900990000","libelle_territoire":"Valdoie (commune non irisée)"}},
{"type":"Feature","geometry":{"type":"Polygon","coordinates":[[[7.03636,47.69216],[7.00934,47.68756],[7.0032,47.67428],[7.01792,47.67598],[7.02047,47.67347],[7.00925,47.66884],[7.00964,47.66802],[7.03745,47.67537],[7.04268,47.68112],[7.04841,47.68223],[7.04752,47.68481],[7.03847,47.68677],[7.03636,47.69216]]]},"properties":{"code_territoire":"iris901000000","libelle_territoire":"Vauthiermont (commune non irisée)"}},
{"type":"Feature","geometry":{"type":"Polygon","coordinates":[[[7.0088,47.58189],[7.00518,47.56787],[7.00201,47.56419],[7.00699,47.56937],[7.00964,47.56497],[7.02165,47.56398],[7.03312,47.57814],[7.03191,47.5824],[7.02346,47.58275],[7.02419,47.58494],[7.01871,47.58693],[7.01439,47.58293],[7.0088,47.58189]]]},"properties":{"code_territoire":"iris901010000","libelle_territoire":"Vellescot (commune non irisée)"}},
{"type":"Feature","geometry":{"type":"Polygon","coordinates":[[[6.85558,47.77318],[6.84325,47.76964],[6.83452,47.7575],[6.84,47.73543],[6.84611,47.73454],[6.85146,47.73817],[6.85583,47.7381],[6.86107,47.74804],[6.86643,47.75033],[6.88495,47.7522],[6.88828,47.75078],[6.88966,47.75483],[6.87595,47.75605],[6.85782,47.7549],[6.86234,47.76228],[6.85558,47.77318]]]},"properties":{"code_territoire":"iris901020000","libelle_territoire":"Vescemont (commune non irisée)"}},
{"type":"Feature","geometry":{"type":"Polygon","coordinates":[[[6.88557,47.68041],[6.8852,47.67399],[6.8819,47.66586],[6.88909,47.66721],[6.88849,47.66446],[6.89587,47.65852],[6.89404,47.66006],[6.89846,47.66322],[6.90884,47.66486],[6.90745,47.66653],[6.9106,47.66913],[6.90799,47.67099],[6.89961,47.6719],[6.8983,47.67534],[6.88557,47.68041]]]},"properties":{"code_territoire":"iris901030000","libelle_territoire":"Vétrigne (commune non irisée)"}},
{"type":"Feature","geometry":{"type":"Polygon","coordinates":[[[6.88099,47.61055],[6.89125,47.61087],[6.89205,47.60662],[6.89613,47.60681],[6.89707,47.604],[6.90264,47.60416],[6.91209,47.59961],[6.92439,47.59819],[6.92048,47.59663],[6.93848,47.59408],[6.94418,47.59598],[6.94617,47.60385],[6.94291,47.60573],[6.94898,47.60919],[6.94994,47.61276],[6.94961,47.61504],[6.93928,47.61802],[6.92084,47.617],[6.91471,47.62169],[6.90796,47.61998],[6.89414,47.62188],[6.89009,47.62218],[6.88423,47.61131],[6.88099,47.61075],[6.88099,47.61055]]]},"properties":{"code_territoire":"iris901040000","libelle_territoire":"Vézelois (commune non irisée)"}},
{"type":"Feature","geometry":{"type":"Polygon","coordinates":[[[6.97029,47.44711],[6.98098,47.44923],[6.99019,47.44798],[7.00218,47.45416],[7.00144,47.45598],[6.99754,47.45643],[6.99789,47.45985],[7.00129,47.46192],[7.00048,47.4672],[6.99171,47.4664],[6.99017,47.46322],[6.97668,47.45667],[6.9712,47.44909],[6.97029,47.44711]]]},"properties":{"code_territoire":"iris901050000","libelle_territoire":"Villars-le-Sec (commune non irisée)"}},
{"type":"Feature","geometry":{"type":"Polygon","coordinates":[[[6.88099,47.61055],[6.88099,47.61075],[6.87322,47.61118],[6.86321,47.60887],[6.85358,47.61027],[6.8393,47.60735],[6.83875,47.60741],[6.84021,47.60288],[6.84675,47.60462],[6.85066,47.60031],[6.85934,47.59935],[6.86012,47.59493],[6.86459,47.59364],[6.86302,47.59223],[6.86653,47.59269],[6.86579,47.59491],[6.88457,47.59803],[6.88691,47.60242],[6.88099,47.61055]]]},"properties":{"code_territoire":"iris900010000","libelle_territoire":"Andelnans (commune non irisée)"}},
{"type":"Feature","geometry":{"type":"Polygon","coordinates":[[[7.03636,47.69216],[7.03731,47.69472],[7.03287,47.69535],[7.03382,47.69965],[7.02648,47.70096],[7.02755,47.70532],[7.00076,47.70469],[6.97822,47.6943],[6.96824,47.69054],[6.97415,47.68835],[6.97613,47.68969],[6.98352,47.68602],[6.99886,47.68912],[7.00934,47.68756],[7.03636,47.69216]]]},"properties":{"code_territoire":"iris900020000","libelle_territoire":"Angeot (commune non irisée)"}},
{"type":"Feature","geometry":{"type":"Polygon","coordinates":[[[6.89047,47.69448],[6.89226,47.69272],[6.90185,47.69447],[6.90474,47.69073],[6.91393,47.69063],[6.91861,47.68818],[6.9267,47.69025],[6.93429,47.69296],[6.95488,47.69308],[6.95069,47.69676],[6.94653,47.69822],[6.94351,47.70347],[6.94692,47.7131],[6.95248,47.7169],[6.95394,47.71734],[6.95157,47.72278],[6.9473,47.72196],[6.94455,47.72176],[6.92547,47.70966],[6.92654,47.7072],[6.91169,47.70142],[6.8907,47.70042],[6.89047,47.69448]]]},"properties":{"code_territoire":"iris900030000","libelle_territoire":"Anjoutey (commune non irisée)"}},
{"type":"Feature","geometry":{"type":"Polygon","coordinates":[[[6.80082,47.6002],[6.80482,47.59779],[6.81486,47.60083],[6.81771,47.59833],[6.82184,47.60065],[6.82842,47.5981],[6.83197,47.59994],[6.83411,47.59855],[6.8359,47.59916],[6.84021,47.60288],[6.83875,47.60741],[6.83285,47.61049],[6.82439,47.61037],[6.81546,47.61662],[6.81319,47.6154],[6.81592,47.60863],[6.81308,47.6042],[6.80082,47.6002]]]},"properties":{"code_territoire":"iris900040000","libelle_territoire":"Argiésans (commune non irisée)"}},
{"type":"Feature","geometry":{"type":"Polygon","coordinates":[[[6.81301,47.72738],[6.80483,47.7415],[6.79915,47.74199],[6.79611,47.73949],[6.78576,47.73924],[6.77382,47.74227],[6.75958,47.73915],[6.76103,47.73009],[6.75662,47.72445],[6.76686,47.71915],[6.77158,47.71257],[6.77913,47.71663],[6.79699,47.71696],[6.8045,47.7223],[6.81301,47.72738]]]},"properties":{"code_territoire":"iris900050000","libelle_territoire":"Auxelles-Bas (commune non irisée)"}},
{"type":"Feature","geometry":{"type":"Polygon","coordinates":[[[6.77458,47.76673],[6.76441,47.75852],[6.76432,47.75343],[6.75793,47.7479],[6.75958,47.73915],[6.77382,47.74227],[6.78576,47.73924],[6.79611,47.73949],[6.79915,47.74199],[6.80483,47.7415],[6.80464,47.7445],[6.79958,47.74862],[6.78969,47.75251],[6.79146,47.7546],[6.78131,47.76517],[6.77458,47.76673]]]},"properties":{"code_territoire":"iris900060000","libelle_territoire":"Auxelles-Haut (commune non irisée)"}},
{"type":"Feature","geometry":{"type":"Polygon","coordinates":[[[6.79329,47.59927],[6.7913,47.59629],[6.79871,47.59087],[6.80078,47.59195],[6.80262,47.59066],[6.80192,47.58429],[6.82032,47.57546],[6.82733,47.58891],[6.82658,47.59218],[6.83411,47.59855],[6.83197,47.59994],[6.82842,47.5981],[6.82184,47.60065],[6.81771,47.59833],[6.81486,47.60083],[6.80482,47.59779],[6.80082,47.6002],[6.79329,47.59927]]]},"properties":{"code_territoire":"iris900070000","libelle_territoire":"Banvillars (commune non irisée)"}},
{"type":"Feature","geometry":{"type":"Polygon","coordinates":[[[6.81546,47.61662],[6.82439,47.61037],[6.83285,47.61049],[6.83875,47.60741],[6.8393,47.60735],[6.83988,47.61117],[6.84671,47.61635],[6.8472,47.62197],[6.84547,47.62776],[6.84545,47.62763],[6.84025,47.62791],[6.83626,47.63129],[6.83493,47.63588],[6.82523,47.62579],[6.82197,47.62429],[6.81186,47.62522],[6.80692,47.62273],[6.81546,47.61662]]]},"properties":{"code_territoire":"iris900080000","libelle_territoire":"Bavilliers (commune non irisée)"}},
{"type":"Feature","geometry":{"type":"Polygon","coordinates":[[[6.9157,47.47823],[6.93848,47.47313],[6.94267,47.48492],[6.94013,47.48695],[6.93522,47.48562],[6.93444,47.48858],[6.93017,47.48726],[6.92783,47.4901],[6.92494,47.48752],[6.92235,47.4884],[6.91715,47.49188],[6.91704,47.49789],[6.90749,47.49485],[6.90953,47.49444],[6.90789,47.4931],[6.9157,47.47823]]]},"properties":{"code_territoire":"iris900090101","libelle_territoire":"Sud"}},
{"type":"Feature","geometry":{"type":"Polygon","coordinates":[[[6.91704,47.49789],[6.91715,47.49188],[6.92235,47.4884],[6.92494,47.48752],[6.92783,47.4901],[6.93017,47.48726],[6.93444,47.48858],[6.93359,47.49595],[6.93019,47.50041],[6.92271,47.50008],[6.92346,47.49798],[6.92006,47.49712],[6.91704,47.49789]]]},"properties":{"code_territoire":"iris900090102","libelle_territoire":"Nord"}},
{"type":"Feature","geometry":{"type":"Polygon","coordinates":[[[6.83656,47.65408],[6.84256,47.65527],[6.84147,47.65739],[6.84659,47.65572],[6.85259,47.65773],[6.84988,47.66121],[6.83593,47.66059],[6.83578,47.6594],[6.83656,47.65408]]]},"properties":{"code_territoire":"iris900100101","libelle_territoire":"Méchelle-Allende"}},
{"type":"Feature","geometry":{"type":"Polygon","coordinates":[[[6.85259,47.65773],[6.84659,47.65572],[6.84147,47.65739],[6.84256,47.65527],[6.84453,47.65139],[6.85468,47.65407],[6.85259,47.65773]]]},"properties":{"code_territoire":"iris900100102","libelle_territoire":"1re Armée"}},
{"type":"Feature","geometry":{"type":"Polygon","coordinates":[[[6.84622,47.64809],[6.85245,47.65008],[6.8555,47.65114],[6.85468,47.65407],[6.84453,47.65139],[6.84622,47.64809]]]},"properties":{"code_territoire":"iris900100103","libelle_territoire":"Marché-Vosges"}},
{"type":"Feature","geometry":{"type":"Polygon","coordinates":[[[6.83578,47.6594],[6.83593,47.66059],[6.83284,47.66081],[6.83587,47.66139],[6.83565,47.66903],[6.83072,47.67131],[6.82244,47.66767],[6.80744,47.66675],[6.79973,47.66027],[6.78766,47.65752],[6.78768,47.655],[6.79173,47.65564],[6.7984,47.6505],[6.80445,47.65341],[6.8102,47.65292],[6.81953,47.65218],[6.82337,47.65514],[6.83468,47.65685],[6.83578,47.6594]]]},"properties":{"code_territoire":"iris900100104","libelle_territoire":"Salbert"}},
{"type":"Feature","geometry":{"type":"Polygon","coordinates":[[[6.83286,47.63895],[6.83819,47.63837],[6.84099,47.64347],[6.83618,47.64941],[6.8326,47.64708],[6.82496,47.65149],[6.81683,47.64659],[6.82478,47.6472],[6.82816,47.64536],[6.82792,47.6419],[6.83286,47.63895]]]},"properties":{"code_territoire":"iris900100201","libelle_territoire":"Le Mont Nord"}},
{"type":"Feature","geometry":{"type":"Polygon","coordinates":[[[6.83489,47.63595],[6.83809,47.63633],[6.8442,47.63705],[6.84929,47.63524],[6.85259,47.63537],[6.85263,47.63539],[6.8498,47.64104],[6.84891,47.64276],[6.84176,47.64125],[6.84099,47.64347],[6.83819,47.63837],[6.83286,47.63895],[6.83489,47.63595]]]},"properties":{"code_territoire":"iris900100202","libelle_territoire":"Le Mont Sud"}},
{"type":"Feature","geometry":{"type":"Polygon","coordinates":[[[6.83626,47.63129],[6.84154,47.63118],[6.8383,47.63466],[6.83809,47.63633],[6.83489,47.63595],[6.83493,47.63588],[6.83626,47.63129]]]},"properties":{"code_territoire":"iris900100203","libelle_territoire":"Résidences Zaporojie Nord"}},
{"type":"Feature","geometry":{"type":"Polygon","coordinates":[[[6.84545,47.62763],[6.84154,47.63118],[6.83626,47.63129],[6.84025,47.62791],[6.84545,47.62763]]]},"properties":{"code_territoire":"iris900100204","libelle_territoire":"Résidences Zaporojie Sud"}},
{"type":"Feature","geometry":{"type":"Polygon","coordinates":[[[6.83618,47.64941],[6.84099,47.64347],[6.84176,47.64125],[6.84891,47.64276],[6.84764,47.64526],[6.84622,47.64809],[6.84453,47.65139],[6.84256,47.65527],[6.83656,47.65408],[6.83618,47.64941]]]},"properties":{"code_territoire":"iris900100205","libelle_territoire":"Alstom-Technopole"}},
{"type":"Feature","geometry":{"type":"Polygon","coordinates":[[[6.8383,47.63466],[6.84462,47.63549],[6.84457,47.6328],[6.84747,47.63132],[6.84929,47.63524],[6.8442,47.63705],[6.83809,47.63633],[6.8383,47.63466]]]},"properties":{"code_territoire":"iris900100301","libelle_territoire":"Résidences Braille"}},
{"type":"Feature","geometry":{"type":"Polygon","coordinates":[[[6.84547,47.62776],[6.84837,47.63059],[6.84747,47.63132],[6.84457,47.6328],[6.84462,47.63549],[6.8383,47.63466],[6.84154,47.63118],[6.84545,47.62763],[6.84547,47.62776]]]},"properties":{"code_territoire":"iris900100302","libelle_territoire":"Résidences Rome"}},
{"type":"Feature","geometry":{"type":"Polygon","coordinates":[[[6.84837,47.63059],[6.85463,47.62663],[6.85259,47.63537],[6.84929,47.63524],[6.84747,47.63132],[6.84837,47.63059]]]},"properties":{"code_territoire":"iris900100303","libelle_territoire":"Pépinière 1"}},
{"type":"Feature","geometry":{"type":"Polygon","coordinates":[[[6.85526,47.62634],[6.85463,47.62663],[6.84837,47.63059],[6.84547,47.62776],[6.8472,47.62197],[6.85251,47.62034],[6.85526,47.62634]]]},"properties":{"code_territoire":"iris900100304","libelle_territoire":"Pépinière 2"}},
{"type":"Feature","geometry":{"type":"Polygon","coordinates":[[[6.84622,47.64809],[6.84764,47.64526],[6.85114,47.6439],[6.85571,47.64503],[6.85245,47.65008],[6.84622,47.64809]]]},"properties":{"code_territoire":"iris900100401","libelle_territoire":"Châteaudun 1"}},
{"type":"Feature","geometry":{"type":"Polygon","coordinates":[[[6.86072,47.64227],[6.8555,47.65114],[6.85245,47.65008],[6.85571,47.64503],[6.85114,47.6439],[6.84764,47.64526],[6.84891,47.64276],[6.8498,47.64104],[6.85711,47.64184],[6.85779,47.63753],[6.8583,47.63768],[6.86072,47.64227]]]},"properties":{"code_territoire":"iris900100402","libelle_territoire":"Châteaudun 2"}},
{"type":"Feature","geometry":{"type":"Polygon","coordinates":[[[6.85263,47.63539],[6.85779,47.63753],[6.85711,47.64184],[6.8498,47.64104],[6.85263,47.63539]]]},"properties":{"code_territoire":"iris900100403","libelle_territoire":"Bougenel-Quatre As"}},
{"type":"Feature","geometry":{"type":"Polygon","coordinates":[[[6.86297,47.62472],[6.86294,47.62482],[6.86258,47.6309],[6.8583,47.63768],[6.85779,47.63753],[6.85263,47.63539],[6.85259,47.63537],[6.85463,47.62663],[6.85526,47.62634],[6.86297,47.62472]]]},"properties":{"code_territoire":"iris900100501","libelle_territoire":"Faubourg de Montbéliard"}},
{"type":"Feature","geometry":{"type":"Polygon","coordinates":[[[6.8583,47.63768],[6.86258,47.6309],[6.86294,47.62482],[6.87039,47.63928],[6.86475,47.6423],[6.86072,47.64227],[6.8583,47.63768]]]},"properties":{"code_territoire":"iris900100502","libelle_territoire":"Vieille Ville-Fourneau"}},
{"type":"Feature","geometry":{"type":"Polygon","coordinates":[[[6.87862,47.6297],[6.87379,47.63095],[6.8812,47.63607],[6.87974,47.63833],[6.87794,47.64068],[6.87039,47.63928],[6.86294,47.62482],[6.86297,47.62472],[6.87862,47.6297]]]},"properties":{"code_territoire":"iris900100503","libelle_territoire":"Glacis du Château"}},
{"type":"Feature","geometry":{"type":"Polygon","coordinates":[[[6.84988,47.66121],[6.85259,47.65773],[6.85468,47.65407],[6.8555,47.65114],[6.86072,47.64227],[6.86475,47.6423],[6.87039,47.63928],[6.87794,47.64068],[6.87974,47.63833],[6.88893,47.64267],[6.88847,47.64644],[6.88614,47.6457],[6.8846,47.64808],[6.89402,47.65259],[6.89414,47.65506],[6.88118,47.64989],[6.87644,47.64975],[6.87546,47.65207],[6.8621,47.65455],[6.85032,47.66116],[6.84988,47.66121]]]},"properties":{"code_territoire":"iris900100504","libelle_territoire":"Forges-Miotte-Champ de Mars"}}
]}